Name,Url,Telephone,Longitude,Latitude,AddressRegion,AddressLocality,AddressCountry,Tags
Thomond Park,http://www.thomondpark.ie,35361421109,-8.642519,52.6742164,Limerick,,Ireland,"Museums and Attraction,Stadium,Sports Venue,Venue,Sports Venues,Cafe,Food and Drink,Pubs and Bar,Food Shops,Shopping,Tour"
Ireland Writing Retreat Donegal,https://www.irelandwritingretreat.com,353833000000,-8.232854867,55.05149629,Donegal,Gweedore,Ireland,"Learning,Activity Operator,Literary Ireland"
Swords Castle,https://swordscastle.events/,+353(0)1840 0891,-6.220338,53.459928,Dublin,Swords,Republic of Ireland,"Historic Houses and Castle,Castle,Tour"
Kilbolane Castle,https://visitballyhoura.com/explore/kilbolane-castle,3536391300,-8.8468668,52.3377252,Cork,,Ireland,"Historic Houses and Castle,Castle"
Cathedral of Christ the King,http://www.mullingarparish.ie,353449000000,-7.3458111,53.5270509,Westmeath,Mullingar,Ireland,"Historic Houses and Castle,Church Abbey,Monastery,Churches,Abbeys and Monastery"
Beoir Chorca Dhuibhne - West Kerry Brewery,https://westkerrybrewery.ie,353877000000,-10.3863964,52.1704021,Kerry,Dingle Peninsula,Ireland,"Museums and Attraction,Artisan,Food and Drink,Restaurant,Local Produce,Pubs and Bar,Food Shops,Shopping"
Spanish Point,,,-9.432739,52.842867,Clare,Spanish Point,Ireland,Discovery Point
Dunmore Country School Garden,http://www.dunmorecountryschool.ie,353579000000,-7.400964,52.858234,Laois,Swan,Ireland,"Food and Drink,Restaurant,Gardening,Nature and Wildlife,Learning,Gardens,Garden"
Dunloe Castle,https://killarney.ie/listing/dunloe-castle,353647000000,-9.627419,52.059671,Kerry,Beaufort,Republic of Ireland,"Castle,Historic Houses and Castle"
Garfinny Bridge,https://dingle-peninsula.ie/component/zoo/item/garfinny-bridge.html,,-10.219193,52.140079,Kerry,Dingle,Republic of Ireland,Museums and Attraction
F. W. Sweny & Co. Ltd.,http://sweny.ie/site/,+353(0)858146713,-6.250578476,53.34188602,Dublin,Dublin City,Ireland,"Historic Houses and Castle,Literary Ireland,Food Shops,Shopping"
Fairbrook House Gardens,http://www.fairbrook-house.com,35351384657,-7.2640721,52.2397987,Waterford,,Ireland,"Historic Houses and Castle,Gardens,Garden,Ruins,Cafe,Food and Drink,Food Shops,Shopping,Tour"
Secret Valley Wildlife Park,https://www.secretvalley.ie/,353539000000,-6.755552911,52.42707607,Wexford,Clonroche,Republic of Ireland,"Visitor Farm,Cafe,Food and Drink"
Dooneen Pier,,,-10.055502,51.648764,Cork,Kilcrohane,Republic of Ireland,Discovery Point
Annagh Church,,353667000000,-9.742521,52.248165,Kerry,Blennerville,Republic of Ireland,"Church Abbey,Monastery,Churches,Abbeys and Monastery"
Riversdale Barge Holidays,http://www.riversdaleholidays.com/,353720000000,-7.7950084,54.0294267,Leitrim,Ballinamore,Ireland,"Cruising,Activity Operator,River,Discovery Point,Boat,Tour"
Goma Contemporary Gallery,https://www.facebook.com/gomawaterford,353872000000,-7.1052349,52.2594229,Waterford,,Ireland,Art Gallery
Inch Island,,,-7.4599475,55.054828,Donegal,,Ireland,"Island,Offshore Island"
Blue Pool,,,-9.548521,51.748777,Cork,,Republic of Ireland,Discovery Point
Carrick-On-Suir Heritage Centre and Friary,https://tipperary.com/listings/carrick-on-suir-heritage-centre-friary,35351640200,-7.4131187,52.3466201,Tipperary,Carrickbeg,Ireland,"Tracing Your Ancestors,Church Abbey,Monastery,Churches,Abbeys and Monastery,Museums and Attraction"
Bantry Harbour,,,-9.4615996,51.679697,Cork,Bantry,Ireland,Embarkation Point
Blackrock Wetlands,http://visitblackrock.ie,+353(0)872077193,-6.375229765,53.95684318,Louth,Blackrock,Ireland,"Bird Watching,Nature and Wildlife,Walking,Natural Landscape"
Dublin Writers Museum,http://www.writersmuseum.com,+353(0)18722077,-6.263985,53.354366,Dublin,,Republic of Ireland,"Craft,Shopping,Learning,Historic Houses and Castle,Museums and Attraction,Literary Ireland,Food Shops,Tour"
Jonathan Swift,,+353(0)16057700,-6.259186343,53.34465008,Dublin,Dublin City Centre,Republic of Ireland,Public Sculpture
Ballylarkin Abbey Freshford - Ballylarkin Church,"http://www.megalithicireland.com/Ballylarkin%20Church,%20Kilkenny.html",,-7.427511,52.722887,,,,"Church Abbey,Monastery,Churches,Abbeys and Monastery"
Casino Model Railway Museum,http://www.modelrailwaymuseum.ie ,35361711222,-6.1582704,53.4505763,Dublin,Malahide,Ireland,"Historic Houses and Castle,Museums and Attraction,Tour"
Ormond Castle,https://heritageireland.ie/places-to-visit/ormond-castle/,35351640787,-7.4071873,52.3453336,Tipperary,Carrickbeg,Ireland,"Covid Safety Charter,Photography,Learning,Walking,Historic Houses and Castle,Castle,Tour"
Fawnglass Loop,https://www.irishtrails.ie/trail/Clare-Island---Fawnglass-loop/143/,,-9.988141954,53.79245548,Mayo,Clare Island,Republic of Ireland,"Walking,Island,Offshore Island"
Bishops Palace Limerick Civic Trust,http://www.limerickcivictrust.ie,35361313399,-8.625267,52.670433,Limerick,Limerick City,Republic of Ireland,"Historic Houses and Castle,Museums and Attraction"
Emo Court Gardens,http://emocourt.ie,353579000000,-7.1968533,53.107194,Laois,Emo,Ireland,"Gardening,Nature and Wildlife,Photography,Learning,Walking,Historic Houses and Castle,Gardens,Garden,Natural Landscape,Cafe,Food and Drink"
Jenkinstown Wood Loop,http://www.irishtrails.ie/Trail/Jenkinstown-Wood---Jenkinstown-Wood-loop/125/,,-7.284483484,52.73116958,Kilkenny,Kilkenny City,Ireland,"Walking,Natural Landscape"
James Joyce,http://www.talkingstatuesdublin.ie/statues/james-joyce/,+353(0)16057700,-6.259782198,53.3499184,Dublin,Dublin City,Republic of Ireland,"Public Sculpture,Talking Statue,Literary Ireland"
Ballycarbery Castle,https://www.theringofkerry.com/ballycarbery-castle,353647000000,-10.2586267,51.9489036,Kerry,Cahersiveen,Ireland,"Castle,Historic Houses and Castle,Ruins"
Belcarra Eviction Cottage,http://www.museumsofmayo.com/eviction-cottage/eviction-cottage-belcarra.html,353879000000,-9.2190281,53.8129006,Mayo,Castlebar,Ireland,Museums and Attraction
Avoca Mill,https://www.avoca.com/en/stores-and-cafes/village,35340235105,-6.210997,52.8613935,Wicklow,Avoca,Ireland,"Restaurant,Craft,Shopping,Food and Drink,Shopping Centres and Department Store,Museums and Attraction,Cafe,Vegetarian,Food Shops,Tour"
"Golden Strand, Achill Island Beach",http://www.blueflagireland.org/,+353(0)14002202,-10.00880856,53.95585687,Mayo,,Republic of Ireland,"Swimming,Swimming Pools and Water Park,Venue,Beach"
Corcomroe Cistercian Abbey,http://monastic.ie/history/corcomroe-cisterican-abbey,353657000000,-9.0540065,53.1268421,Clare,,Ireland,"Church Abbey,Monastery,Churches,Abbeys and Monastery"
Dooega Beach Achill Island  ,https://www.blueflag.global/show-site?siteId=6673,35314002202,-10.0206359,53.9213832,Mayo,,Ireland,"Bird Watching,Nature and Wildlife,Swimming,Swimming Pools and Water Park,Venue,Beach"
Clogherhead Beach,https://www.blueflag.global/show-site?siteId=6579,353429000000,-6.2344532,53.7885745,Louth,Clogher,Ireland,"Fishing,Angling,Kitesurfing,Windsurfing,Activity Operator,Surfing,Swimming,Swimming Pools and Water Park,Venue,Walking,Beach,Sports Venues"
Pontoon Pier,,,-9.8557878,51.655246,Cork,Castletownbere,Ireland,Embarkation Point
Gap of Mamore,,,-7.5012481,55.243401,Donegal,,Ireland,Discovery Point
Askeaton Castle and Franciscan Friary,http://monastic.ie/history/askeaton-franciscan-friary,35361392149,-8.975399,52.603892,Limerick,Askeaton,Republic of Ireland,"Church Abbey,Monastery,Churches,Abbeys and Monastery"
Marblehill,,,-7.9019326,55.176389,Donegal,Dunfanaghy,Ireland,Discovery Point
James Fort Kinsale,https://www.castles.nl/james-fort,353215000000,-8.5120806,51.6986056,Cork,,Ireland,"Ruins,Historic Houses and Castle"
Central Arts and Exhibitions Centre,http://www.centralarts.ie,+353(0)864543246,-7.106192193,52.26069911,Waterford,Waterford City,Ireland,"Learning,Art Gallery,Activity Operator"
Bere Island,http://www.bereisland.net,+353(0)2775099,-9.86344539,51.63047154,Cork,,Republic of Ireland,"Bird Watching,Nature and Wildlife,Cycling,Fishing,Angling,Sailing,Activity Operator,Swimming,Swimming Pools and Water Park,Venue,Walking,Island,Offshore Island,Natural Landscape"
Athlumney Castle,http://www.discoverboynevalley.ie/boyne-valley-drive/heritage-sites/athlumney-castle-navan,353420000000,-6.675048,53.650359,Meath,Navan,Republic of Ireland,"Castle,Historic Houses and Castle"
Achill Cycle Hub,http://www.irishtrails.ie/Trail/Achill-Cycle-Hub---Loop-1/1144/,+353(0)9847353,-9.990732595,53.96261007,Mayo,Cashel,Republic of Ireland,"Cycling,Island,Offshore Island"
Kanturk Castle,https://www.castles.nl/kanturk-castle,353214000000,-8.9027299,52.164382,Cork,Banteer,Ireland,"Castle,Historic Houses and Castle"
Findlater Church,,+353(0)18378600,-6.263976,53.35462,Dublin,Dublin City,Republic of Ireland,"Church Abbey,Monastery,Churches,Abbeys and Monastery"
Whiddy Island,,,-9.50323505,51.69274356,Cork,Whiddy Island,Ireland,"Island,Offshore Island"
"Ballyboy House, Garden & Woodlands",https://www.garden.ie/gardenstosee/ballyboy-house/,+35352 7465297,-7.9712781,52.2823963,Tipperary,Clogheen,Ireland,"Gardening,Nature and Wildlife,Gardens,Garden"
Castlemorris - Pheasant loop,http://www.irishtrails.ie,,-7.278881549,52.4705016,Kilkenny,Knocktopher,Ireland,"Walking,Natural Landscape"
The Manor Gardens,https://www.discoverireland.ie/Arts-Culture-Heritage/the-manor-gardens/48219,,-9.057847354,51.68778695,Cork,Dunmanway,Republic of Ireland,"Gardening,Nature and Wildlife,Gardens,Garden"
Glenquin Castle,https://www.limerick.ie/discover/eat-see-do/history-heritage/historic-attractions/glenquin-castle,35361396255,-9.106741,52.3839379,Limerick,Glenquin,Ireland,"Castle,Historic Houses and Castle"
Francis Ledwidge Museum,http://www.francisledwidge.com,353420000000,-6.5274991,53.7071243,Meath,Slane,Ireland,"Covid Safety Charter,Learning,Historic Houses and Castle,Museums and Attraction,Tour"
Ha'penny Bridge,,,-6.263081,53.346307,Dublin,Dublin City Centre,Ireland,Public Sculpture
Black Church Print Studio,http://blackchurchprint.ie/,+353(0)16773629,-6.264056,53.345635,Dublin,,Republic of Ireland,"Craft,Shopping,Learning,Activity Operator,Art Gallery"
Port Beach,https://www.blueflag.global/show-site?siteId=6579,353429000000,-6.25549658,53.83764919,Louth,Clogherhead,Republic of Ireland,"Photography,Learning,Swimming,Swimming Pools and Water Park,Venue,Walking,Beach,Sports Venues"
St Iberius Church,,,-6.4621424,52.3391991,Wexford,,Ireland,"Church Abbey,Monastery,Churches,Abbeys and Monastery"
Ardgillan Castle and Victorian Gardens,https://ardgillancastle.ie,35318492212,-6.1616584,53.5817894,Dublin,Balbriggan,Ireland,"Covid Safety Charter,Learning,Walking,Historic Houses and Castle,Castle,Gardens,Garden,Venue,Music,Cafe,Food and Drink,Local Produce,Restaurant,Tour"
Limerick City Library,http://www.limerickcity.ie/library/,+353(0)61314668,-8.62316,52.665574,Limerick,Limerick City,Republic of Ireland,"Craft,Shopping,Learning,Tracing Your Ancestors,Museums and Attraction,Literary Ireland"
Inish Beg Gardens,http://www.inishbeg.com/gardens-woodlands/,3532821745,-9.3438145,51.5250555,Cork,,Ireland,"Walking,Gardens,Garden"
Mollie Moo’s Pet Farm,https://molliemoos.ie/,353877000000,-7.37065,53.4699713,Westmeath,Mullingar,Ireland,Visitor Farm
Músaem Chorca Dhuibhne - Corca Dhuibhne Regional Museum,http://www.westkerrymuseum.com,353669000000,-10.406184,52.166482,Kerry,Tralee,Republic of Ireland,"Museums and Attraction,Cafe,Food and Drink,Food Shops,Shopping,Tour"
Carrickmacross Workhouse,http://carrickmacrossworkhouse.com,353430000000,-6.7248991,53.9785998,Monaghan,Carrickmacross,Ireland,"Learning,Photography,Historic Houses and Castle,Museums and Attraction,Tour"
The Chimera Gallery,http://www.chimera-gallery.com,353878000000,-7.3434993,53.5251272,Westmeath,Mullingar,Ireland,Art Gallery
River Inny,http://www.fishinginireland.info,35318842600,-7.323131051,53.66843186,Dublin,Swords,Republic of Ireland,"Fishing,Angling,River,Discovery Point"
James Connolly,http://www.talkingstatuesdublin.ie/statues/connolly/,,-6.254645628,53.34874522,Dublin,,Ireland,"Public Sculpture,Talking Statue"
Dodd's Rock Beach,,,-6.213459105,52.663357,Wexford,Courtown,Republic of Ireland,"Swimming,Swimming Pools and Water Park,Venue,Walking,Beach"
Valentia Slate,https://www.facebook.com/ValentiaSlate/,353862000000,-10.3427468,51.9251401,Kerry,,Ireland,"Activity Operator,Natural Landscape,Tour"
Monasterboice High Cross and Round Tower,https://www.visitlouth.ie/explore-and-do/explore-louth/sacred-sites-louth/monasterboice-high-cross-and-round-tower.html,353420000000,-6.4177232,53.7777634,Louth,,Ireland,"Photography,Learning,Walking,Historic Houses and Castle,Church Abbey,Monastery,Churches,Abbeys and Monastery,Ruins,Tour"
Drewstown Woods - Girley Bog Loop,http://www.irishtrails.ie,+353(0)469248856,-6.933382333,53.67406282,Meath,Kells,Ireland,"Walking,Natural Landscape"
Trá na gCeann (Silver Strand),,,-9.1247356,53.250939,Galway,Barna,Ireland,Discovery Point
Abbeyleix Loops - Killamuck Bog,http://www.irishtrails.ie/Trail/Abbeyleix-Loops---Killamuck-Bog-loop/623/,,-7.353079203,52.90683053,Laois,Abbeyleix,Ireland,"Walking,Natural Landscape"
Cunnamore Pier,,,-9.424822,51.503928,,,,Embarkation Point
James Larkin,http://www.talkingstatuesdublin.ie/statues/larkin/,,-6.259937704,53.34907981,Dublin,Dublin City,Republic of Ireland,"Public Sculpture,Talking Statue"
Inis Meáin (Inishmaan) Seaport,,,-9.5879368,53.0894286,Galway,,Ireland,Discovery Point
Great Sugar Loaf Mountain,http://www.visitwicklow.ie,,-6.151,53.152,Wicklow,Kilmacanogue,Ireland,"Walking,Natural Landscape"
Schull Harbour,,,-9.5447695,51.524833,Cork,Schull,Ireland,Embarkation Point
Collon House,http://www.collonhouse.com,353872000000,-6.4864,53.7782,Louth,Collon,Ireland,"Historic Houses and Castle,Castle,Gardens,Garden,Tour"
Lakemount Gardens,http://www.lakemountgarden.com,353868000000,-8.406242,51.924447,Cork,Glanmire,Republic of Ireland,"Gardens,Garden"
Granuaile Visitor Centre,https://www.irishtourist.com/things-to-do/granuaile-visitor-centre,3539866341,-9.809611,53.763985,Mayo,Louisburgh,Republic of Ireland,Museums and Attraction
Tír na Sí,http://www.tirnasi.com,353215000000,-8.3474797,52.0291372,Cork,Watergrasshill,Ireland,"Covid Safety Charter,Restaurant,Visitor Farm,Cafe,Food and Drink,Local Produce,Activity Operator"
Tours Of The Government Buildings,http://www.taoiseach.gov.ie,+353(0)16194116,-6.25366,53.338393,Dublin,Dublin City Centre,Republic of Ireland,"Historic Houses and Castle,Tour"
Irish Whiskey Museum,http://www.irishwhiskeymuseum.ie,+353(0)15250970,-6.259589373,53.34424924,Dublin,,Republic of Ireland,"Activity Operator,Museums and Attraction,Food and Drink,Pubs and Bar,Food Shops,Shopping,Tour"
Fore Abbey,https://heritageireland.ie/visit/places-to-visit/fore-abbey/,353450000000,-7.227154,53.683924,Westmeath,Fore,Ireland,"Church Abbey,Monastery,Churches,Abbeys and Monastery,Ruins,Historic Houses and Castle"
O'Driscoll Garden Centre,https://www.facebook.com/ODriscoll-Garden-Centre-449803402105043/,35350421636,-7.7973804,52.6702947,Tipperary,,Ireland,"Gardening,Nature and Wildlife,Gardens,Garden"
Coolcarrigan House,http://www.coolcarrigan.ie,+353(0)45863527,-6.851319069,53.31908404,Kildare,Naas,Republic of Ireland,"Castle,Historic Houses and Castle"
Whitefriar Street Church,http://www.carmelites.ie,+353(0)14758821,-6.266452,53.339835,Dublin,,Republic of Ireland,"Church Abbey,Monastery,Churches,Abbeys and Monastery,Food Shops,Shopping"
Killary Monastic Site,,,-6.546373,53.707926,Meath,Slane,Republic of Ireland,"Church Abbey,Monastery,Churches,Abbeys and Monastery"
Glanteenassig Wood,http://www.coillteoutdoors.ie,+353(0)667163378,-10.02929126,52.20570913,Kerry,Castlegregory,Republic of Ireland,"Bird Watching,Nature and Wildlife,Cycling,Fishing,Angling,Walking,Forest Park,Park and Forest Walk,Natural Landscape"
Cú Chulainn,http://www.talkingstatuesdublin.ie/statues/cu-chulainn/,,-6.260721,53.349349,Dublin,,Ireland,"Public Sculpture,Talking Statue,Cafe,Food and Drink,Food Shops,Shopping"
Irish Working Sheepdogs,http://www.irishworkingsheepdogs.com/,353878000000,-6.3273762,53.0115036,Wicklow,,Ireland,"Agriculture,Nature and Wildlife,Visitor Farm"
Irish Theatre Summer School,http://www.gaietyschool.com,+353(0)16799277,-6.26073,53.3464,Dublin,Dublin City Centre,Republic of Ireland,"Learning,Activity Operator,Literary Ireland"
Gour Discovery Point,,,-9.9834134,51.6298431,Cork,,Ireland,Discovery Point
Moygara Castle,http://www.loughgaralakesandlegends.ie/lough-gara/moygara-castle,353719000000,-8.4751904,53.9718301,Sligo,,Ireland,"Castle,Historic Houses and Castle"
Kilgarvan Motor Museum,https://www.facebook.com/Kilgarvan-Motormuseum-708264642618370,353647000000,-9.434164,51.889134,Kerry,,Ireland,"Museums and Attraction,Cafe,Food and Drink,Tour"
Angling at Jerpoint Park,http://jerpointpark.com/activities-events/fishing-2/,+353(0)866061449,-7.166836,52.512917,Kilkenny,Thomastown,Ireland,"Fishing,Angling,Activity Operator,Natural Landscape"
Skerries Mills,http://www.skerriesmills.ie,+353(0)18495208,-6.110148,53.574331,Dublin,Skerries,Republic of Ireland,"Covid Safety Charter,Craft,Shopping,Activity Operator,Museums and Attraction,Cafe,Food and Drink,Food Shops"
Adare Franciscan Friary,http://www.adaremanor.com,35361396204,-8.779736133,52.55186692,Limerick,Adare,Republic of Ireland,"Photography,Learning,Historic Houses and Castle,Church Abbey,Monastery,Churches,Abbeys and Monastery,Ruins"
Sea Life Aquarium Bray,https://www.visitsealife.com/bray/,35312866939,-6.098144047,53.20343423,Wicklow,Bray,Republic of Ireland,"Covid Safety Charter,Zoos and Aquarium"
Adelaide Road Presbyterian Church,http://www.adelaideroadchurch.ie,+353(0)12694944,-6.258781,53.332501,Dublin,Dublin City,Republic of Ireland,"Church Abbey,Monastery,Churches,Abbeys and Monastery"
The Bay Garden,http://www.thebaygarden.com,353539000000,-6.443575,52.608613,Wexford,Camolin,Ireland,"Gardening,Nature and Wildlife,Gardens,Garden"
St Multose Church,,353215000000,-8.525568,51.70585,Cork,Kinsale,Ireland,"Church Abbey,Monastery,Churches,Abbeys and Monastery"
Cape Clear Heritage Centre,http://www.capeclearisland.ie/heritageCentre,3532839119,-9.49512149,51.43300827,Cork,Cape Clear Island,Republic of Ireland,Museums and Attraction
Slieveardagh Heritage Centre,http://www.slieveardagh.com/business/slieveardagh-enterprise-centre,+353(0)529156165,-7.672186,52.56818,Tipperary,Killenaule,Republic of Ireland,"Learning,Historic Houses and Castle,Church Abbey,Monastery,Churches,Abbeys and Monastery,Museums and Attraction"
Ballymastocker Strand,,,-7.5952649,55.183983,Donegal,Portsalon,Ireland,Discovery Point
Bog of Allen Nature Centre,http://www.ipcc.ie/visitor-attraction,35345860133,-6.942346,53.278587,Kildare,Rathangan,Ireland,"Walking,Museums and Attraction,Natural Landscape,Cafe,Food and Drink,Tour"
Tubberpatrick,http://visitlongford.ie/listings/toberpatrick-cemetery-and-holy-well,353433000000,-7.817613964,53.72476692,Longford,,Republic of Ireland,"Church Abbey,Monastery,Churches,Abbeys and Monastery,Ruins,Historic Houses and Castle"
St Joseph's Redemptorist Church,https://www.redemptoristsdundalk.ie,353429000000,-6.3895579,54.0042289,Louth,Dundalk,Ireland,"Photography,Learning,Historic Houses and Castle,Church Abbey,Monastery,Churches,Abbeys and Monastery"
St. Laurence's Gate - Drogheda Walls,http://www.discoverboynevalley.ie/boyne-valley-drive/heritage-sites/st-laurences-gate-drogheda-walls,353420000000,-6.347102,53.71591,Louth,Drogheda,Republic of Ireland,"Photography,Learning,Historic Houses and Castle"
Skerries South Beach,,,-6.104546596,53.58075891,Dublin,Skerries,Ireland,Beach
Kerry International Dark-Sky Reserve,http://www.kerrydarkskytourism.com/,+353(0)877845688,-10.09249034,52.02430573,Kerry,,Ireland,"Learning,Photography,Natural Landscape"
Clonohill Gardens,https://www.gardensofireland.org/directory/31/,353579000000,-7.625490356,52.98564781,Laois,Coolrain,Ireland,"Gardening,Nature and Wildlife,Gardens,Garden"
The Four Courts,http://www.courts.ie/,+353(0)18886000,-6.273526,53.34591,Dublin,,Republic of Ireland,Historic Houses and Castle
Inishbofin Heritage Museum & Gift Shop,https://www.facebook.com/InishbofinHeritageMuseum,353880000000,-10.206749,53.613395,Galway,Inishbofin,Ireland,Museums and Attraction
Working Artists Studios,https://www.facebook.com/Working-Artist-Studios-184258858280445/,353862000000,-9.4614566,51.5627245,Cork,Ballydehob,Ireland,"Craft,Shopping,Learning,Art Gallery"
Duleek Abbey,http://www.discoverboynevalley.ie/boyne-valley-drive/heritage-sites/duleek-abbey,353420000000,-6.4221752,53.6547501,Meath,Duleek,Ireland,"Church Abbey,Monastery,Churches,Abbeys and Monastery"
Cahore Beach ,,,-6.197159,52.5590215,Wexford,Cahore,Ireland,Beach
Crafts of Ireland,http://craftsofireland.ie,353868000000,-7.0886528,53.785466,Cavan,Virginia,Ireland,"Covid Safety Charter,Craft,Shopping,Learning,Activity Operator,Art Gallery"
Slieve Bloom Mountains,,,-7.5672222,53.0933333,Laois,,Ireland,"Walking,Natural Landscape"
Experience Gaelic Games,https://experiencegaelicgames.com,35312544292,-6.263118,53.374288,Dublin,Glasnevin,Ireland,"Restaurant,Gaa,Learning,Activity Operator,Food and Drink,Pubs and Bar"
Dublin Art Life,http://dublinartlife.com,,-6.2603097,53.3498053,Dublin,Dublin City,Republic of Ireland,"Art Gallery,Museums and Attraction"
Aughris Head,,,-8.7570235,54.268943,Sligo,Templeboy,Ireland,Discovery Point
Drimnagh Castle,http://www.drimnaghcastle.org/,+353(0)14502530,-6.33295,53.324844,Dublin,,Republic of Ireland,"Walking,Historic Houses and Castle,Castle,Gardens,Garden,Museums and Attraction,Food Shops,Shopping,Tour"
Droichead Charraig an Logáin (Carrickalegaun Bridge) .,,,-9.6563065,53.288173,Galway,Lettermore,Ireland,Discovery Point
Whiddy Island View Discovery Point,,,-9.582194,51.713113,Cork,,Ireland,Discovery Point
The Gallery Kinsale,http://thegallerykinsale.com,353868000000,-8.5230489,51.7050658,Cork,Kinsale,Ireland,"Craft,Shopping,Learning,Art Gallery,Food Shops"
Cuan an Daingin (Dingle Harbour),,,-10.278091,52.139049,Kerry,Dingle,Ireland,Embarkation Point
Stradbally Medieval Church,,3535841741,-7.460793487,52.13043387,Waterford,Stradbally,Ireland,"Church Abbey,Monastery,Churches,Abbeys and Monastery"
Dún An Óir,"http://www.megalithicireland.com/Dun%20an%20Oir,%20Smerwick.html",,-10.4149455,52.1901965,Kerry,Smerwick,Ireland,"Church Abbey,Monastery,Churches,Abbeys and Monastery"
Kilfane Church,,353568000000,-7.118503,52.555069,Kilkenny,Thomastown,Republic of Ireland,"Church Abbey,Monastery,Churches,Abbeys and Monastery"
Marlfield House & Gardens,https://www.marlfieldhouse.com/,353539000000,-6.275211,52.668747,Wexford,Gorey,Ireland,"Walking,Gardens,Garden"
Teach Mhuiris,https://www.gaothdobhair.ie/en/tourist-attractions-gweedore/teach-mhuiris,353750000000,-8.292346461,55.07528477,Donegal,Derrybeg,Ireland,"Castle,Historic Houses and Castle"
Kildare Town Heritage Centre,http://www.kildareheritage.com,35345530672,-6.910412,53.1569873,Kildare,,Ireland,"Covid Safety Charter,Learning,Historic Houses and Castle,Shopping,Tour"
Portmagee Harbour,,,-10.365681,51.886058,Kerry,Portmagee,Ireland,Embarkation Point
Derrymore Beach,,+353(0)667121288,-9.842923401,52.24068427,Kerry,Derrymore,Republic of Ireland,Beach
St. Carthage's Cathedral Lismore,http://www.discoverlismore.com,3535854975,-7.9292165,52.1398466,Waterford,Lismore,Ireland,"Historic Houses and Castle,Church Abbey,Monastery,Churches,Abbeys and Monastery"
Desmond Castle Adare,https://heritageireland.ie/places-to-visit/adare-castle/,35361396666,-8.78202,52.569504,Limerick,Adare,Ireland,"Photography,Learning,Historic Houses and Castle,Castle,Ruins,Tour"
Wren’s Wood Garden,http://visitwicklow.ie/attraction/wrens-wood-garden/,35312810274,-6.101017576,53.05493003,Wicklow,Ashford,Ireland,"Gardens,Garden"
Ballymore Historic Features,http://www.ballymorehistoricfeatures.com,353868000000,-6.374547,52.598346,Wexford,Ballymore,Republic of Ireland,"Museums and Attraction,Tour"
The Ballinglen Museum of Art,http://www.ballinglenartsfoundation.org,3539643184,-9.3722177,54.2797399,Mayo,Ballycastle,Ireland,"Craft,Shopping,Photography,Learning,Art Gallery,Museums and Attraction"
Elly Bay Beach,https://www.blueflag.global/show-site?siteId=6674,35314002202,-10.09206433,54.15979422,Mayo,,Republic of Ireland,"Bird Watching,Nature and Wildlife,Sailing,Activity Operator,Surfing,Swimming,Swimming Pools and Water Park,Venue,Beach"
Abbeyderg Abbey and Graveyard,http://visitlongford.ie/listings/abbeyderg-abbey,353433000000,-7.789106677,53.6334654,Longford,Kenagh,Republic of Ireland,"Photography,Learning,Historic Houses and Castle,Church Abbey,Monastery,Churches,Abbeys and Monastery,Ruins"
Glasnevin Cemetery Museum,http://www.glasnevinmuseum.ie,35318826550,-6.2770874,53.37003,Dublin,Glasnevin,Ireland,"Walking,Tracing Your Ancestors,Gardens,Garden,Museums and Attraction,Public Sculpture,Cafe,Food and Drink,Food Shops,Shopping,Tour"
Freshford Loop,http://www.trailkilkenny.ie,,-7.399741169,52.73450163,Kilkenny,Freshford,Republic of Ireland,"Walking,Natural Landscape"
Gurteen Beach,,,-9.960840282,53.37948911,Galway,Roundstone,Ireland,Beach
Magilligan Point View,,,-7.0140302,55.22405,Donegal,Greencastle,Republic of Ireland,Discovery Point
Fionn MacCool Loop,http://www.irishtrails.ie/Trail/Fionn-MacCool-Loop---Bonane-Beara/473/,,-9.536642639,51.81601273,Kerry,Bonane,Republic of Ireland,"Walking,Natural Landscape"
Brushwood Studios Art Gallery,http://www.brushwoodstudios.com,353647000000,-9.8698743,51.8283045,Kerry,Sneem,Ireland,"Craft,Shopping,Art Gallery"
Clonony Castle,https://facebook.com/ClononyCastle/?fref=ts,353878000000,-7.922767,53.2358989,Offaly,,Ireland,"Photography,Learning,Historic Houses and Castle,Castle"
North Tipperary Genealogy Centre,http://www.tipperarycoco.ie/heritage/genealogy-centre,3536733850,-8.200283933,52.86578066,Tipperary,Nenagh,Republic of Ireland,"Tracing Your Ancestors,Museums and Attraction"
Bishop's Quarter ,,,-9.127942,53.1291281,Clare,Ballyvaughan,Ireland,"Swimming,Swimming Pools and Water Park,Venue,Beach,Natural Landscape"
National Print Museum,https://www.nationalprintmuseum.ie,35316603770,-6.2354701,53.3352901,Dublin,,Ireland,"Covid Safety Charter,Craft,Shopping,Learning,Activity Operator,Museums and Attraction,Cafe,Food and Drink,Local Produce,Restaurant,Food Shops,Tour"
Balbriggan Beach,,+353(0)18400077,-6.182411859,53.61201653,Dublin,Swords,Republic of Ireland,Beach
Killoughternane,,,-6.824711153,52.66285596,Carlow,Bagenalstown,Republic of Ireland,"Church Abbey,Monastery,Churches,Abbeys and Monastery,Ruins,Historic Houses and Castle"
Kerry Geopark,https://www.facebook.com/kerrygeopark,+353(0)877934663,-9.897747,51.837759,Kerry,Sneem,Republic of Ireland,"Walking,Natural Landscape,Activity Operator"
The Barony Of Erris Birdwatching,https://www.mayo-ireland.ie/en/towns-villages/bangor/bangor-activities-birdwatching.html,+353(0)9782292,-9.990733019,54.2237204,Mayo,,Republic of Ireland,"Bird Watching,Nature and Wildlife,Natural Landscape"
Cappoquin House Gardens,https://www.cappoquinhouseandgardens.com,3535854290,-7.8503399,52.1494507,Waterford,Cappoquin,Ireland,"Walking,Gardens,Garden,Historic Houses and Castle,Tour"
Ballymoney North Beach,https://www.blueflag.global/show-site?siteId=10257,,-6.203500032,52.67669255,Wexford,Ballymoney,Ireland,Beach
The Wexford Slobs and Wildfowl Reserve,https://www.wexfordwildfowlreserve.ie,353761000000,-6.4200302,52.3570279,Wexford,,Ireland,"Bird Watching,Nature and Wildlife,Learning,Photography,Forest Park,Park and Forest Walk,Walking,National Park,National and Forest Park,Natural Landscape"
Bushy Park,,+353(0)14900320,-6.292767969,53.30131952,Dublin,Terenure,Republic of Ireland,"Forest Park,Park and Forest Walk,Walking,National Park,National and Forest Park,Public Park,Nature and Wildlife"
Morriscastle Beach ,https://www.blueflag.global/show-site?siteId=6636,,-6.2383223,52.5141228,Wexford,,Ireland,"Swimming,Swimming Pools and Water Park,Venue,Walking,Beach"
Inishcrone Pier (Enniscrone Pier),,,-9.096038,54.220128,Sligo,Enniscrone,Ireland,Discovery Point
The Irish Rock 'N' Roll Museum Experience,https://www.facebook.com/irishrockmuseum,+353(0)16351993,-6.2645993,53.344865,Dublin,,Ireland,"Covid Safety Charter,Activity Operator,Museums and Attraction,Traditionally Irish,Food Shops,Shopping,Tour"
Marlay Park,http://www.dlrcoco.ie/parks/marlay_information.html,+353(0)14937372,-6.276237376,53.27676505,Dublin,Rathfarnham,Republic of Ireland,"Cycling,Golf,Walking,Gardens,Garden,Historic Houses and Castle,Public Park,Nature and Wildlife,Venue,Music,Sports Venues,Cafe,Food and Drink,Local Produce,Restaurant,Food Shops,Shopping,Tour"
City Highlights Walking Tour- Dublin,http://sightwalkingdublin.com/,+353(0)862002480,-6.2604903,53.3396625,Dublin,,Ireland,"Gaa,Walking,Activity Operator,Tour"
The Úna Guy Studio,http://Unaguy.ie,+353(0)868109972,-6.264839781,53.3451271,Dublin,,Ireland,"Craft,Shopping,Art Gallery,Food Shops"
Michael Collins House,http://michaelcollinshouse.ie,353239000000,-8.8914,51.6217,Cork,Clonakilty,Ireland,"Covid Safety Charter,Museums and Attraction,Food Shops,Shopping,Tour"
Piltown - Mountain Grove Loop,http://www.trailkilkenny.ie,+353(0)567752111,-7.341113595,52.35373178,Kilkenny,,Ireland,"Walking,Natural Landscape"
Killala Quay,,,-9.2192835,54.213245,Mayo,Killala,Ireland,Discovery Point
The Jeanie Johnston,http://www.jeaniejohnston.ie,+353(0)14730111,-6.245995144,53.34776903,Dublin,Dublin City,Republic of Ireland,"Covid Safety Charter,Activity Operator,Museums and Attraction,Tour"
Abbey Road Artists’ Studios,http://www.athloneartsandtourism.ie/artists-studios/,353906000000,-7.9442923,53.429856,Westmeath,Athlone,Ireland,"Craft,Shopping,Art Gallery"
Wexford Town Library,http://www.wexford.ie/library,+353(0)539121637,-6.463811,52.342114,Wexford,Wexford Town,Republic of Ireland,Literary Ireland
Brideweir Hous,https://www.brideweir.ie,3532536386,-8.1550475,52.0869699,Cork,Conna,Ireland,"Castle,Historic Houses and Castle"
Clasac,http://www.clasac.ie,+353(0)18363060,-6.230766,53.360651,Dublin,Clontarf,Republic of Ireland,"Learning,Museums and Attraction,Traditionally Irish,Venue,Music,Food Shops,Shopping"
Lassanroe Garden,https://www.discoverireland.ie/Arts-Culture-Heritage/lassanroe-garden/71154,3532822563,-9.311018382,51.58731379,Cork,Skibbereen,Republic of Ireland,"Gardening,Nature and Wildlife,Gardens,Garden"
Bere Island - East End Pier,,,-9.819922,51.634348,Cork,Bere Island,Ireland,Discovery Point
Greenacres Art Centre,https://www.greenacres.ie/the-gallery/,353539000000,-6.464030093,52.34143477,Wexford,Wexford Town,Republic of Ireland,"Craft,Shopping,Art Gallery,Venue,Comedy,Music,Activity Operator"
Rascals Brewing Company,https://rascalsbrewing.com,35315382051,-6.3240651,53.3361014,Dublin,Inchicore,Ireland,"Covid Safety Charter,Restaurant,Food and Drink,Activity Operator,Museums and Attraction,Pubs and Bar,Food Shops,Shopping,Tour"
Samphire Island,,,-9.859530615,52.27970839,Kerry,Fenit,Republic of Ireland,Discovery Point
Locaboat Ireland,https://www.locaboat.com/en/boating-holidays/ireland/shannon/,353720000000,-8.099788373,53.94423816,Leitrim,,Republic of Ireland,"Cruising,Activity Operator,River,Discovery Point,Boat,Tour"
Carrowteige - Children of Lir Loop,http://www.irishtrails.ie/Trail/Carrowteige--Children-of-Lir--Loop/141/,,-9.813638063,54.31261173,Mayo,,Republic of Ireland,"Walking,Public Park,Nature and Wildlife,Public Sculpture"
Killiney  Hill,http://www.dlrcoco.ie/parks/killiney.html,+353(0)12047275,-6.107273729,53.2703464,Dublin,Killiney,Ireland,"Photography,Learning,Walking,Natural Landscape,Public Park,Nature and Wildlife,Cafe,Food and Drink"
Wicklow Brewery,https://www.wicklowbrewery.ie/brewery.html,35340441661,-6.14497101,52.88935803,Wicklow,Redcross,Ireland,"Food and Drink,Restaurant,Museums and Attraction,Pubs and Bar,Tour"
Government Buildings,http://www.taoiseach.gov.ie,+353(0)16194249,-6.254129,53.339374,Dublin,,Republic of Ireland,"Historic Houses and Castle,Tour"
Bá Fhionntrá (Fintragh Bay),,,-8.4882206,54.635294,Donegal,,Ireland,Discovery Point
Kilkenny Library Local Studies,http://kilkennylibrary.ie/eng/our_services/local_studies,+353(0)567794160,-7.246596988,52.65542983,Kilkenny,Kilkenny City,Republic of Ireland,"Learning,Tracing Your Ancestors,Literary Ireland"
Altar,,,-9.6438852,51.514061,Cork,Schull,Ireland,Discovery Point
Arklow Beach,,,-6.126780942,52.81185983,Wicklow,Arklow,Ireland,Beach
IMI Conference Centre & Residence,http://www.imi.ie/,+353(0)12078400,-6.231596,53.275966,Dublin,Sandyford,Republic of Ireland,"Restaurant,Learning,Historic Houses and Castle,Food and Drink,Food Shops,Shopping"
Tullahought Kilmacoliver Loop Walk,http://www.trailkilkenny.ie,,-7.373104348,52.42256284,Kilkenny,,Republic of Ireland,"Walking,Natural Landscape"
Toy Soldier Factory & Visitor Centre,https://toysoldierfactory.ie,3532640342,-9.082187,51.900673,Cork,,Ireland,"Covid Safety Charter,Craft,Shopping,Learning,Museums and Attraction,Cafe,Food and Drink,Food Shops"
Waterloo Round Tower,http://www.irishstones.org/place.aspx?p=1232,,-8.573712,51.954691,Cork,Blarney,Republic of Ireland,Historic Houses and Castle
Cappagh Pier,,,-9.498637,52.628546,Clare,Kilrush,Ireland,Discovery Point
Sonairte The National Ecology Centre,http://www.sonairte.ie,+353(0)419827572,-6.256045676,53.67827618,Meath,Laytown,Republic of Ireland,"Agriculture,Nature and Wildlife,Food and Drink,Restaurant,Gardening,Learning,Activity Operator,Natural Landscape,Cafe,Local Produce"
Garryvoe Beach,https://www.ringofcork.ie/listings/garryvoe-beach/,+353(0)214613432,-7.99973,51.865968,Cork,Garryvoe,Republic of Ireland,"Swimming,Swimming Pools and Water Park,Venue,Walking,Beach"
Rumley's Open Farm,https://rumleysfarm.ie/,353215000000,-8.5365005,51.83483762,Cork,,Ireland,"Walking,Zip Lining,Activity Operator,Visitor Farm,Cafe,Food and Drink,Food Shops,Shopping"
Knockpatrick Gardens,https://knockpatrickgardens.com,3536965256,-9.108704,52.591073,Limerick,Foynes,Ireland,"Gardening,Nature and Wildlife,Photography,Learning,Gardens,Garden"
"Imaginosity, Dublin Children’s Museum",http://www.imaginosity.ie,+353(0)12176130,-6.216709,53.277382,Dublin,Sandyford,Republic of Ireland,"Craft,Shopping,Learning,Activity Operator,Museums and Attraction,Cafe,Food and Drink,Food Shops"
Castlegregory Beach Green Coast Beach Award 2017,,,-10.013826,52.260314,Kerry,Castlegregory,Ireland,Discovery Point
The Irish Pewtermill Centre,,+353(0)879090044,-6.809467632,52.98488874,Kildare,Moone,Republic of Ireland,Museums and Attraction
Carlow Town Walk - Slí na Sláinte,https://carlowtourism.com/carlow-town-walk/,353599000000,-6.9294889,52.8352498,Carlow,,Ireland,"Walking,Historic Houses and Castle,Public Park,Nature and Wildlife"
Clonakilty Brewing Company,http://clonakiltybrew.ie,353879000000,-8.9019341,51.61647,Cork,Clogheen,Ireland,"Food and Drink,Restaurant,Museums and Attraction,Artisan,Activity Operator,Food Shops,Shopping,Tour"
Tig Bhric & West Kerry Brewery,https://westkerrybrewery.ie,353877000000,-10.3863964,52.1704021,Kerry,Dingle Peninsula,Ireland,"Food and Drink,Restaurant,Museums and Attraction,Pubs and Bar,Tour"
Mountain Stage,,,-10.034603,52.035924,Kerry,Glenbeigh,Ireland,Discovery Point
Independence Museum Kilmurry,http://www.kilmurrymuseum.ie,353217000000,-8.881698017,51.84240006,Cork,Macroom,Ireland,"Covid Safety Charter,Learning,Museums and Attraction"
The Browne Clayton Monument,https://www.igs.ie/conservation/project/browne-clayton-monument,353539000000,-6.8049493,52.3599232,Wexford,,Ireland,Public Sculpture
Leamaneh Castle,,,-9.1399531,52.987804,Clare,,Ireland,"Castle,Historic Houses and Castle"
Hill of Slane,,353420000000,-6.5401217,53.7176713,Meath,Slane,Ireland,"Church Abbey,Monastery,Churches,Abbeys and Monastery,Ruins,Historic Houses and Castle"
William Smith O'Brien Monument,http://www.visitdublin.com,+353(0)16057700,-6.259341,53.348576,Dublin,Dublin City,Republic of Ireland,Public Sculpture
Bective Abbey,http://monastic.ie/history/bective-cistercian-abbey,,-6.7028943,53.5824741,Meath,Ballina,Ireland,"Church Abbey,Monastery,Churches,Abbeys and Monastery"
Kilcooley Abbey,"http://www.megalithicireland.com/Kilcooley%20Abbey,%20Tipperary.html",,-7.5713094,52.6707686,Tipperary,,Ireland,"Church Abbey,Monastery,Churches,Abbeys and Monastery"
Hamwood House and Gardens,https://hamwood.ie,35318255210,-6.5136092,53.4112349,Meath,Dunboyne,Ireland,"Photography,Learning,Walking,Historic Houses and Castle,Gardens,Garden,Tour"
Dardistown Castle,http://www.dardistowncastle.ie,353420000000,-6.3136965,53.6645112,Meath,Julianstown,Ireland,"Photography,Learning,Historic Houses and Castle,Castle,Tour"
Michael J Quill Centre,http://www.historic-ireland.com/places/778.html,353647000000,-9.46143,51.902656,Kerry,Kilgarvan,Republic of Ireland,Museums and Attraction
Kilbrittain Whale,,+353(0)862567084,-8.6917337,51.6735577,Cork,Kilbrittain,Ireland,Natural Landscape
Vincent Hyland Art Gallery,https://www.vincenthylandartist.com/,353832000000,-10.106873,51.754406,Kerry,Caherdaniel,Ireland,"Craft,Shopping,Photography,Learning,Art Gallery"
Limerick City Gallery of Art,http://gallery.limerick.ie/,35361310633,-8.6284482,52.658502,Limerick,,Ireland,"Craft,Shopping,Learning,Art Gallery,Cafe,Food and Drink"
Salterbridge House Gardens,http://www.salterbridgehouseandgarden.com/,3535854952,-7.8804767,52.1489749,Waterford,Cappoquin,Ireland,"Walking,Gardens,Garden"
Carrownisky Strand,,,-9.893226,53.735383,Mayo,Louisburgh,Ireland,Discovery Point
Burren Art & Craft Fair,https://www.facebook.com/burrencrafts,353868000000,-9.150688235,53.11695957,Clare,Ballyvaughan,Ireland,"Craft,Shopping,Shopping Centres and Department Store,Art Gallery,Food Shops"
Lackagh Museum and Heritage Centre,https://www.lackaghmuseum.ie,353878000000,-8.8910537,53.3695037,Galway,,Ireland,"Covid Safety Charter,Museums and Attraction"
Alix Gardners Cookery School,http://www.dublincookery.com,+353(0)16681553,-6.245333,53.329644,Dublin,Ballsbridge,Republic of Ireland,"Cooking,Cookery,Learning,Activity Operator,Historic Houses and Castle,Artisan,Food and Drink,Restaurant,Local Produce"
Grange Beach,http://cleancoasts.org/wp-content/uploads/2015/02/Green-Coast-2015.pdf,,-6.8298309,52.1981951,Wexford,Grange,Ireland,"Kitesurfing,Windsurfing,Activity Operator,Swimming,Swimming Pools and Water Park,Venue,Walking,Beach"
Desmond Hall,http://www.heritageireland.ie/en/shannon-region/desmondhall,3536977408,-9.060708,52.450419,Limerick,Newcastle West,Republic of Ireland,"Photography,Learning,Historic Houses and Castle,Castle"
Ballyheige Beach,,,-9.8356122,52.388788,Kerry,Ballyheigue,Ireland,Discovery Point
Lynch's Castle,http://galwaycity.galway-ireland.ie/lynchs-castle.htm,,-9.0522862,53.2731658,Galway,,Ireland,"Castle,Historic Houses and Castle"
Waterford Room,http://waterfordlibraries.ie/branches/,+353(0)51849975,-7.11108,52.259561,Waterford,Waterford City,Republic of Ireland,"Learning,Historic Houses and Castle,Literary Ireland"
Lackan Strand,,,-9.2574486,54.274154,Mayo,,Ireland,Discovery Point
Inis Cathaigh - Scattery Island Discovery Point,,,-9.518447007,52.61440511,Clare,Kilrush,Ireland,Discovery Point
Abbey Road Gardens,https://www.facebook.com/waterfordgardentrail/,353872000000,-7.102184,52.264196,Waterford,Ferrybank,Republic of Ireland,"Gardens,Garden"
Lackeen Castle Lorrha,"http://www.megalithicireland.com/Lackeen%20Castle,%20Tipperary.html",353863000000,-8.0735866,53.0887302,Tipperary,,Ireland,"Castle,Historic Houses and Castle"
Long Acre Alpacas,https://facebook.com/Long-acre-alpacas-826113690904317,353876000000,-6.5978215,53.8803381,Louth,Ardee,Ireland,"Learning,Photography,Walking,Visitor Farm,Venue,Sports Venues,Tour"
Ballyhist Garden,https://tipperary.com/listings/ballyhist-garden/,353527000000,-7.872028223,52.31529252,Tipperary,Ardfinnan,Republic of Ireland,"Gardening,Nature and Wildlife,Gardens,Garden"
Black Castle Wicklow,"http://www.megalithicireland.com/Black%20Castle,%20Wicklow.html",,-6.030845,52.9811225,Wicklow,,Ireland,"Castle,Historic Houses and Castle,Ruins"
George Bernard Shaw,http://www.talkingstatuesdublin.ie/statues/george-bernard-shaw/,,-6.25248666,53.34092467,Dublin,,Ireland,"Covid Safety Charter,Public Sculpture,Talking Statue"
St. Crónáns High Cross at Black Mills,https://tipperary.com/listings/st-cronans-high-cross-at-black-mills/,35350521850,-7.7957194,52.9554436,Tipperary,,Ireland,"Historic Houses and Castle,Church Abbey,Monastery,Churches,Abbeys and Monastery,Public Sculpture,Ruins"
Garter Lane Arts Theatre,http://www.facebook.com/garterlaneartscentre,+353(0)51855038,-7.114905,52.261684,Waterford,Waterford City,Republic of Ireland,"Learning,Art Gallery,Activity Operator"
Annemarie Bourke Studio Gallery,https://www.annemariebourke.com/,35361410510,-8.6293925,52.6613024,Limerick,,Ireland,"Craft,Shopping,Learning,Art Gallery"
Manorcunningham View,,,-7.622315,54.958368,Donegal,Manorcunningham,Ireland,Discovery Point
City Hall Cork,https://www.corkcity.ie/en/,353215000000,-8.464807,51.8965976,Cork,Cork City,Ireland,"Historic Houses and Castle,Venue,Comedy,Music"
Doughmore Bay,,,-9.504238,52.745639,Clare,Doonbeg,Ireland,Discovery Point
The Kerry Creamery Experience,https://www.facebook.com/thekerrycreameryexperience,353670000000,-9.6679626,52.1145293,Kerry,Milltown,Ireland,"Covid Safety Charter,Agriculture,Nature and Wildlife,Activity Operator,Museums and Attraction,Visitor Farm,Cafe,Food and Drink,Tour"
Irish Film Institute,http://ifi.ie/archive,35316793477,-6.264943,53.344624,Dublin,,Republic of Ireland,"Movies,Cinema,Venue,Museums and Attraction,Cafe,Food and Drink,Activity Operator,Food Shops,Shopping"
St Michan's Church,,35318724154,-6.275396,53.347458,Dublin,Dublin City,Republic of Ireland,"Church Abbey,Monastery,Churches,Abbeys and Monastery"
Ros Goill (Rossguill Peninsula),,,-7.8449062,55.227669,Donegal,Downings,Ireland,Discovery Point
Monksgrange Garden & Norman Gallery,http://www.monksgrangegarden.com,353539000000,-6.7837777,52.5178443,Wexford,,Ireland,"Walking,Gardens,Garden"
Haggardstown Old Church and Graveyard,,,-6.3780595,53.9662155,Louth,,Ireland,"Historic Houses and Castle,Church Abbey,Monastery,Churches,Abbeys and Monastery,Ruins"
Ballybunion North Beach,https://www.blueflag.global/show-site?siteId=6641,353667000000,-9.681072438,52.50507167,Kerry,Ballybunion,Republic of Ireland,Beach
Corravahan House & Gardens,http://www.corravahan.com,353880000000,-7.2597449,54.0352035,Cavan,,Ireland,"Historic Houses and Castle,Gardens,Garden,Tour"
Primrose Hill,,+353(0)16280373,-6.450529,53.353489,Dublin,Lucan,Ireland,"Castle,Historic Houses and Castle"
Baginbun Beach,,,-6.929462,52.123762,Wexford,,Republic of Ireland,Beach
Blackwater Open Farm,https://www.blackwateropenfarm.ie/,353851000000,-6.342129,52.42801,Wexford,Blackwater,Ireland,"Covid Safety Charter,Agriculture,Nature and Wildlife,Visitor Farm,Cafe,Food and Drink"
On The Nail' Literary Readings,http://www.limerickwriterscentre.com,+353(0)872996409,-8.62318,52.667199,Limerick,Limerick City,Republic of Ireland,"Learning,Activity Operator,Literary Ireland"
St Mary's Church Leixlip,http://www.leixlipandlucan.glendalough.anglican.org,35316240976,-6.490518,53.363249,Kildare,Leixlip,Republic of Ireland,"Historic Houses and Castle,Church Abbey,Monastery,Churches,Abbeys and Monastery"
Heir Island,,,-9.438856311,51.49624242,Cork,,Ireland,Discovery Point
The Doorway Gallery,http://thedoorwaygallery.com,+353(0)17645895,-6.2563,53.342249,Dublin,,Ireland,"Craft,Shopping,Art Gallery,Food Shops"
Derrycassin Walks,http://visitlongford.ie/listings/derrycassin-woods-walk/,+353(0)433342577,-7.538751653,53.83076035,Longford,,Republic of Ireland,"Walking,Natural Landscape"
Father Murphy Centre,https://www.facebook.com/Fr-Murphy-Centre-Boolavogue-315611758499163,353539000000,-6.4107808,52.5485902,Wexford,Boolavogue,Ireland,Museums and Attraction
Aine Dunne - Fine Art Tapestry Weaver,http://www.ainedunneweaver.com,353879000000,-6.351277,53.762114,Louth,Drogheda,Ireland,"Craft,Shopping,Learning,Art Gallery,Activity Operator"
Maynooth Campus Conference & Accommodation,http://www.maynoothcampus.com,+353(0)17086400,-6.592757857,53.37649551,Kildare,Maynooth,Republic of Ireland,"Restaurant,Learning,Historic Houses and Castle,Food and Drink"
Temple Cronan Early Christian Church,,353657000000,-9.0609731,53.0461692,Clare,,Ireland,"Church Abbey,Monastery,Churches,Abbeys and Monastery"
Ahakista Air India Plane Disaster Memorial,http://livingthesheepsheadway.com/air-india-disaster-memorial,3532821489,-9.621448,51.59751,Cork,Ahakista,Republic of Ireland,Public Sculpture
Ballymoon Castle,http://carlowtourism.com/ballymoon-castle-2,,-6.9062967,52.700405,Carlow,,Ireland,"Castle,Historic Houses and Castle,Ruins"
Carnivan Beach,,,-6.830589669,52.17620032,Wexford,,Republic of Ireland,Beach
"Newman University Church, Our Lady Seat of Wisdom",http://newman.nd.edu/,+353(0)14759674,-6.260616,53.336624,Dublin,Dublin City,Republic of Ireland,"Church Abbey,Monastery,Churches,Abbeys and Monastery"
Leinster House,http://www.oireachtas.ie/parliament/visitsevents/,+353(0)16183271,-6.254252,53.340122,Dublin,Dublin City,Republic of Ireland,"Historic Houses and Castle,Tour"
Sol Art Gallery,http://www.solart.ie,+353(0)16750972,-6.257837936,53.34207607,Dublin,,Ireland,"Craft,Shopping,Art Gallery,Food Shops"
Biddy's Cottage,https://www.biddyscottage.com,353864000000,-6.096538524,53.27655982,Dublin,Dalkey,Ireland,"Craft,Shopping,Activity Operator,Historic Houses and Castle,Local Produce,Food and Drink,Restaurant,Food Shops"
Tory Hill - Frochans Loop,http://www.trailkilkenny.ie,,-7.17550686,52.36787812,Kilkenny,Mullinavat,Republic of Ireland,"Walking,Natural Landscape"
De Valera Museum and Bruree Heritage Centre,http://visitballyhoura.com/index.php/2015/07/22/de-valera-museum-bruree-heritage-centre,353864000000,-8.662829,52.4244926,Limerick,Bruree,Ireland,Museums and Attraction
Wood Quay,http://www.visitdublin.com/dublin-a-to-z/details/wood-quay/49834/,+353(0)14370969,-6.26098,53.343599,Dublin,,Republic of Ireland,"Public Sculpture,Ruins,Historic Houses and Castle"
St Catherine's Church,http://saintcatherines.ie/,35314735100,-6.281194,53.342908,Dublin,,Republic of Ireland,"Church Abbey,Monastery,Churches,Abbeys and Monastery"
Drishane House,https://drishane.com,3532836126,-9.1811823,51.5261146,Cork,Drishane,Ireland,"Historic Houses and Castle,Gardens,Garden,Museums and Attraction"
Inis Bó Finne - Inishbofin Island - Donegal,,,-8.170623921,55.1678058,Donegal,Inishbofin Island,Ireland,Discovery Point
Agricultural Heritage Display Centre,http://www.coolakayhouse.ie/museum,35312862423,-6.1880463,53.1667259,Wicklow,Enniskerry,Ireland,"Agriculture,Nature and Wildlife,Museums and Attraction"
Red Abbey,http://www.corkpastandpresent.ie/mapsimages/corkphotographs/corkcameraclubhistoricalphotos/redabbeystreet/,353215000000,-8.4723587,51.8940883,Cork,,Ireland,"Church Abbey,Monastery,Churches,Abbeys and Monastery"
Front Strand Beach,https://youghal.ie/top-10-things-to-do/youghal-beaches/,+353(0)2420769,-7.851509,51.937915,Cork,Youghal,Republic of Ireland,"Surfing,Activity Operator,Swimming,Swimming Pools and Water Park,Venue,Walking,Beach"
Lár Na Pairce museum  - The Story of Gaelic Games,http://larnapairce.ie,35350422702,-7.8130745,52.6782242,Tipperary,Thurles,Ireland,"Gaa,Museums and Attraction,Venue,Sports Venues"
The Donegal Gaeltacht,,,-8.1107141,54.654487,Donegal,Glencolmcille,Ireland,Natural Landscape
Esker Monastery Retreat,http://www.facebook.com/Esker-Redemptorists-251128325046360/,+353(0)91844007,-8.683624,53.282257,Galway,Kiltullagh,Republic of Ireland,"Walking,Church Abbey,Monastery,Churches,Abbeys and Monastery,Activity Operator"
Shekina Sculpture Garden,http://www.shekinasculpturegarden.com,353869000000,-6.351044997,52.95589079,Wicklow,Glenmalure,Republic of Ireland,"Gardens,Garden"
The Lace Gallery,http://www.thelacegallery.com,353599000000,-6.7364351,52.7535167,Carlow,,Ireland,"Craft,Shopping,Shopping Centres and Department Store,Art Gallery,Food Shops"
Cleggan Harbour,,,-10.111172,53.556776,Galway,Cleggan,Ireland,Embarkation Point
The Moth Studios,http://www.facebook.com/TheMothStudios,353873000000,-7.3594973,53.9931383,Cavan,,Ireland,"Craft,Shopping,Art Gallery"
The Manor Fields Adare,http://manorfieldsadare.com/,353874000000,-8.7913384,52.5547882,Limerick,Adare,Republic of Ireland,"Climbing,Activity Operator,Gaa,Walking"
North Kerry Museum,http://www.northkerrymuseum.com,353877000000,-9.6553707,52.4708634,Kerry,Ballyduff,Ireland,"Museums and Attraction,Food Shops,Shopping"
Ahenny High Crosses,http://www.megalithicireland.com/High%20Cross%20Ahenny.htm,,-7.393333382,52.41253746,Tipperary,Ahenny,Ireland,"Church Abbey,Monastery,Churches,Abbeys and Monastery,Ruins,Historic Houses and Castle"
Angela Woulfe Gallery,http://www.angelawoulfegallery.com/,35361310164,-8.6288578,52.6591346,Limerick,,Ireland,"Craft,Shopping,Art Gallery"
"Victorian People's Flower Gardens, Phoenix Park",http://phoenixpark.ie/what-to-see/,+353(0)18213021,-6.299662901,53.35038531,Dublin,Phoenix Park,Ireland,"Walking,Gardens,Garden,Public Park,Nature and Wildlife,Cafe,Food and Drink"
Cablemaster's Residence,https://atlanticvilla.ie/cablemaster-house,353872000000,-10.289066,51.922393,Kerry,Knightstown,Republic of Ireland,"Castle,Historic Houses and Castle"
Lismore County Library,http://waterfordlibraries.ie/branches/,+353(0)5821377,-7.935046,52.136636,Waterford,Lismore,Republic of Ireland,"Learning,Literary Ireland"
Woodstown Beach,,,-6.983563056,52.19287649,Waterford,Woodstown,Republic of Ireland,Beach
Kilpatrick Beach,,,-6.151020144,52.72790513,Wexford,Castletown,Republic of Ireland,Beach
Muckross Friary,http://www.heritageireland.ie/en,353647000000,-9.504292,52.018083,Kerry,Killarney,Republic of Ireland,"Bird Watching,Nature and Wildlife,Photography,Learning,Walking,Historic Houses and Castle,Church Abbey,Monastery,Churches,Abbeys and Monastery,National Park,National and Forest Park,Ruins"
Cionn Mhucrois (Muckros Head),,,-8.5899407,54.617378,Donegal,Kilcar,Ireland,Discovery Point
Galway County Library,http://www.galwaylibrary.ie,+353(0)91562471,-9.05756,53.273911,Galway,Galway City,Republic of Ireland,Literary Ireland
St. Patricks Well - Clonmel,,353526000000,-7.761667,52.362071,Tipperary,Clonmel,Ireland,"Church Abbey,Monastery,Churches,Abbeys and Monastery"
Secret Gardens Sligo,https://www.secretgardensofsligo.com/gardens,353863000000,-8.476086439,54.27641929,Sligo,Sligo Town,Ireland,"Gardening,Nature and Wildlife,Gardens,Garden"
Aran Islands - Inishmaan - Inis Meáin,,,-9.58965917,53.08469456,Galway,Aran Islands,Republic of Ireland,"Island,Offshore Island"
Edmund Burke,http://www.visitdublin.com,+353(0)16057700,-6.261219,53.344479,Dublin,Dublin City,Republic of Ireland,"Public Sculpture,Tour"
Waterford Garden Trail,https://www.facebook.com/waterfordgardentrail,3535854975,-7.115246071,52.2659554,Waterford,Waterford City,Republic of Ireland,"Gardening,Nature and Wildlife,Gardens,Garden"
North Mayo Family Research Centre,http://www.northmayogenealogy.com/,3539631809,-9.3114016,54.0704965,Mayo,Ballina,Ireland,"Tracing Your Ancestors,Gardens,Garden,Museums and Attraction,Cafe,Food and Drink"
Killarney Art Gallery,http://www.killarneyartgallery.com/,353873000000,-9.5091062,52.0588637,Kerry,Killarney,Ireland,"Craft,Shopping,Art Gallery"
Castlemorris - Fern Loop,http://www.irishtrails.ie/Trail/Castlemorris---Fern-loop-/119/,,-7.212819444,52.48398887,Kilkenny,Knocktopher,Ireland,"Walking,Natural Landscape"
Martina Furlong - Artists Studio Gallery,https://www.martinafurlong.com/,353875000000,-6.4063611,52.498219,Wexford,Gorey,Ireland,"Craft,Shopping,Art Gallery"
Shannon-Erne Waterway Ballinamore,http://www.waterwaysireland.org/places-to-go/shannon-erne-waterway,+353(0)719644855,-7.804921955,54.05289061,Leitrim,Ballinamore,Republic of Ireland,"Fishing,Angling,River,Discovery Point,Boat,Tour"
Greenfort,http://www.donegalgardentrail.com/site/?page_id=2306,353878000000,-7.65388635,55.13440451,Donegal,Kerrykeel,Republic of Ireland,"Gardening,Nature and Wildlife,Gardens,Garden"
Pollardstown Fen,http://www.kildare.ie/details.asp?GCID=68,35345980483,-6.845791,53.1835843,Kildare,,Ireland,"Agriculture,Nature and Wildlife,Walking,Natural Landscape"
Beale Strand,,,-9.6312144,52.573972,Kerry,Ballybunion,Ireland,Discovery Point
Kells Beach ,https://www.blueflag.global/show-site?siteId=6654,353647000000,-10.1319167,52.0252772,Kerry,Kells,Ireland,"Fishing,Angling,Swimming,Swimming Pools and Water Park,Venue,Beach,Natural Landscape"
Kinnagoe Bay,,,-7.0128822,55.258608,Donegal,,Ireland,Discovery Point
Áras Inis Gluaire,http://arasinisgluaire.ie/main/,+353(0)9781079,-9.988932505,54.22246655,Mayo,Belmullet,Republic of Ireland,"Craft,Shopping,Learning,Movies,Cinema,Venue,Art Gallery,Music,Cafe,Food and Drink"
Old Cork Waterworks Experience,http://www.lifetimelab.ie,353215000000,-8.5092931,51.895023,Cork,,Ireland,"Covid Safety Charter,Learning,Historic Houses and Castle,Museums and Attraction,Cafe,Food and Drink"
Nenagh Heritage Centre & North Tipp Genealogy Centre,https://www.facebook.com/Nenaghheritage/,3536733850,-8.2007414,52.8656669,Tipperary,Nenagh,Ireland,"Tracing Your Ancestors,Historic Houses and Castle,Museums and Attraction,Tour"
Dun na Rí Forest Park,http://www.coillte.ie/site/dun-a-ri-forest-park/,+353(0)494331942,-6.792601382,53.91922203,Cavan,Kingscourt,Republic of Ireland,"Walking,Forest Park,Park and Forest Walk,National Park,National and Forest Park,Public Park,Nature and Wildlife"
The Cathedral of Saint Patrick and Saint Felim,https://www.kilmorediocese.ie/cathedral-of-st-patrick-st-felim,353494000000,-7.3617541,53.9951218,Cavan,,Ireland,"Photography,Learning,Historic Houses and Castle,Church Abbey,Monastery,Churches,Abbeys and Monastery"
Killinkere Visitor Farm,http://www.killinkerevisitorfarm.ie,353873000000,-7.062339,53.909817,Cavan,Virginia,Ireland,"Covid Safety Charter,Agriculture,Nature and Wildlife,Learning,Visitor Farm,Tour"
The Copper House Gallery,http://www.thecopperhousegallery.com,+353(0)15354332,-6.267770252,53.33473325,Dublin,,Ireland,"Craft,Shopping,Art Gallery,Food Shops"
RUA RED South Dublin Arts Centre,http://www.ruared.ie,+353(0)14515860,-6.2603097,53.3498053,Dublin,Tallaght,Ireland,"Craft,Shopping,Learning,Art Gallery,Cafe,Food and Drink"
Carran Medieval Church,,353657000000,-9.0760449,53.0376019,Clare,Carran,Ireland,"Church Abbey,Monastery,Churches,Abbeys and Monastery"
Ardmulchan Church,"http://www.megalithicireland.com/Ardmulchan%20Church,%20Meath.html",,-6.628602,53.6718102,Meath,Kells,Ireland,"Church Abbey,Monastery,Churches,Abbeys and Monastery,Ruins,Historic Houses and Castle"
Arthur Wellesley Duke Of Wellington,http://www.visitdublin.com,+353(0)16057700,-6.303231,53.349086,Dublin,Phoenix Park,Republic of Ireland,Public Sculpture
The Lartigue Monorailway,http://www.lartiguemonorail.com,3536824393,-9.490492,52.44965,Kerry,Listowel,Republic of Ireland,"Transport,Activity Operator,Museums and Attraction,Tour,Coach,Road"
National Archives of Ireland,http://www.nationalarchives.ie,35314072300,-6.268747,53.338802,Dublin,Dublin City,Republic of Ireland,"Learning,Tracing Your Ancestors,Museums and Attraction"
Drumlane Abbey and Round Tower,https://www.thisiscavan.ie/fun/article/drumlane-abbey-round-tower,353494000000,-7.4790881,54.0583026,Cavan,,Ireland,"Photography,Learning,Church Abbey,Monastery,Churches,Abbeys and Monastery,Ruins,Historic Houses and Castle"
Larchill Gardens,https://larchill.ie/,35316287354,-6.6588015,53.4411683,Meath,,Ireland,"Photography,Learning,Historic Houses and Castle,Gardens,Garden,Public Park,Nature and Wildlife,Tour"
Belturbet Railway Station,http://www.discoverbelturbet.ie/about-belturbet/belturbet-railway-station,353500000000,-7.4422836,54.0976819,Cavan,Belturbet,Ireland,"Museums and Attraction,Cafe,Food and Drink,Tour"
Cleire Goats,http://www.oilean-chleire.ie,3532839126,-9.492451,51.4420574,Cork,,Ireland,"Agriculture,Nature and Wildlife,Learning,Visitor Farm,Activity Operator"
Eighty Two Merrion Square,,+353(0)16761173,-6.251328,53.339313,Dublin,Dublin City Centre,Republic of Ireland,"Castle,Historic Houses and Castle"
Marl Bog,https://www.coillte.ie/site/marl-bog/,+353(0)61337322,-8.058619543,52.55037095,Tipperary,Dundrum,Republic of Ireland,"Bird Watching,Nature and Wildlife,Photography,Learning,Walking,Forest Park,Park and Forest Walk,Natural Landscape,Public Park"
Greta's Herbs,http://www.gretasherbs.com,353863000000,-10.0375747,52.1524334,Kerry,Annascaul,Ireland,"Gardening,Nature and Wildlife,Learning,Gardens,Garden,Food Shops,Shopping"
The Guinness Open Gate Brewery,https://www.guinnessopengate.com,35314712455,-6.2869935,53.3433454,Dublin,Dublin City,Republic of Ireland,"Food and Drink,Restaurant,Museums and Attraction,Pubs and Bar,Vegan,Vegetarian"
Doe Castle View,,,-7.8514212,55.128775,Donegal,,Ireland,Discovery Point
Nano Nagle Centre,http://www.nanonaglebirthplace.ie,3532226411,-8.52273,52.15127,Cork,,Ireland,"Learning,Museums and Attraction"
Ballybunion 'Walking the Beach' Looped Walk,http://www.irishtrails.ie/Trail/Ballybunion-Loops---Beach-Walk/607/,+353(0)667121288,-9.671727706,52.52350188,Kerry,Ballybunion,Republic of Ireland,"Walking,Beach,Natural Landscape"
Sphere With Sphere,,+353(0)16082320,-6.261219,53.344479,Dublin,Dublin City Centre,Republic of Ireland,Public Sculpture
Shelmalier Forth Mountain,,+353(0)539239400,-6.573049286,52.31663311,Wexford,Barntown,Republic of Ireland,"Forest Park,Park and Forest Walk,Walking,National Park,National and Forest Park,Public Park,Nature and Wildlife"
Parkavonear Castle,http://www.megalithicireland.com/Parkavonear%20Castle.html,353647000000,-9.5550062,52.0759354,Kerry,,Ireland,"Castle,Historic Houses and Castle"
Moone High Cross,http://www.kildare.ie/Heritage/History/religious/crosses/moone-high-cross.htm,,-6.8250371,52.979414,Kildare,,Ireland,"Photography,Learning,Historic Houses and Castle,Church Abbey,Monastery,Churches,Abbeys and Monastery"
Altidore Castle,https://www.ihh.ie/index.cfm/houses/house/name/Altidore%20Castle,353878000000,-6.1381173,53.1106151,Wicklow,,Ireland,"Historic Houses and Castle,Castle,Museums and Attraction"
Fairbrook House Gardens,http://www.fairbrook-house.com,+35351 384657,-7.2640721,52.2397987,Waterford,,Ireland,"Gardens,Garden"
The Dillon Garden,http://www.dillongarden.com,35312148740,-6.1596571,53.2954544,Dublin,Monkstown,Ireland,"Gardening,Nature and Wildlife,Learning,Gardens,Garden,Tour"
Lislaughtin Franciscan Friary,,353667000000,-9.47861,52.547334,Kerry,Ballylongford,Republic of Ireland,"Church Abbey,Monastery,Churches,Abbeys and Monastery"
Listowel Castle,https://www.heritageireland.ie/en/shannon-region/listowelcastle,353864000000,-9.4869317,52.4443513,Kerry,Listowel,Ireland,"Photography,Learning,Historic Houses and Castle,Castle"
Drogheda Museum Millmount,http://www.millmount.net,353420000000,-6.350255038,53.7117854,Louth,Drogheda,Republic of Ireland,"Craft,Shopping,Learning,Museums and Attraction,Artisan,Food and Drink,Restaurant,Cafe,Tour"
Loughcrew Cairns,http://www.heritageireland.ie/en/midlands-eastcoast/loughcrew,353499000000,-7.1120081,53.7445758,Meath,,Ireland,"Photography,Learning,Walking,Church Abbey,Monastery,Churches,Abbeys and Monastery,Ruins,Historic Houses and Castle,Cafe,Food and Drink,Tour"
12 Henrietta Street,http://thedrawingroom.ie/,+353(0)862746153,-6.2705757,53.3524569,Dublin,Dublin City Centre,Ireland,"Historic Houses and Castle,Venue,Music"
Avondale House and Forest Park,https://visitwicklow.ie/item/avondale-house-forest-park,35340446111,-6.2226009,52.9117801,Wicklow,,Ireland,"Historic Houses and Castle,Forest Park,Park and Forest Walk,Walking,Museums and Attraction,Cafe,Food and Drink"
The Library Project,http://at shop.photoireland.org,+353(0)876856169,-6.263919307,53.34561919,Dublin,,Ireland,"Craft,Shopping,Shopping Centres and Department Store,Art Gallery,Food Shops"
Monicknew Woods,http://www.coillteoutdoors.ie/index.php?id=173&rec_site=97&trail=125,+353(0)578660831,-7.542280165,53.07081133,Laois,Mountrath,Republic of Ireland,"Bird Watching,Nature and Wildlife,Photography,Learning,Walking,Historic Houses and Castle,Forest Park,Park and Forest Walk,Natural Landscape,Public Park"
Tick-Tock Activity Farm,http://www.tick-tockactivityfarm.ie,35340233624,-6.2329752,52.7927404,Wicklow,Thomastown,Ireland,"Agriculture,Nature and Wildlife,Visitor Farm,Cafe,Food and Drink"
Tarbert Bridewell Courthouse & Jail Museum,http://www.tarbertbridewell.com,3536836500,-9.3764602,52.573661,Kerry,Tarbert,Ireland,"Photography,Learning,Historic Houses and Castle,Museums and Attraction,Cafe,Food and Drink,Food Shops,Shopping"
Bullock Castle,http://www.dlrtourism.ie,+353(0)1280 6964,-6.108629,53.285016,Dublin,Dalkey,Republic of Ireland,"Castle,Historic Houses and Castle,Ruins"
Kilcrea Franciscan Friary,http://ovensparish.com/kilcrea-abbey/,353215000000,-8.709483,51.859982,Cork,Ovens,Republic of Ireland,"Church Abbey,Monastery,Churches,Abbeys and Monastery"
White Strand Beach ,https://www.blueflag.global/show-site?siteId=6664,353647000000,-10.2744456,51.9431292,Kerry,,Ireland,"Bird Watching,Nature and Wildlife,Swimming,Swimming Pools and Water Park,Venue,Walking,Beach,Natural Landscape"
Wexford Garden Trail,http://www.wexfordgardentrail.com,,-6.992454254,52.29638937,Wexford,,Ireland,"Gardening,Nature and Wildlife,Walking,Gardens,Garden"
Commons Loop,http://www.carlingford.ie,+353(0)429373033,-6.186023506,54.03790008,Louth,Carlingford,Republic of Ireland,"Walking,Natural Landscape"
Dunhill Castle,"http://www.megalithicireland.com/Dunhill%20Castle,%20Waterford.html",,-7.2633,52.1573794,Waterford,,Ireland,"Historic Houses and Castle,Castle,Ruins"
Malaidh Ghleann Gheis (Glengesh Pass),,,-8.4845379,54.720577,Donegal,,Republic of Ireland,Discovery Point
Inch Island,,,-7.4599475,55.054828,Donegal,,Ireland,Discovery Point
Rosslare Beach ,https://www.blueflag.global/show-site?siteId=6638,,-6.3896733,52.2902385,Wexford,,Ireland,"Swimming,Swimming Pools and Water Park,Venue,Walking,Beach"
St. Paul's Church,https://www.facebook.com/StPaulsCahir/,353526000000,-7.9240671,52.3766022,Tipperary,,Ireland,"Photography,Learning,Historic Houses and Castle,Church Abbey,Monastery,Churches,Abbeys and Monastery"
Castletown House Parkland,http://www.castletown.ie,35316288252,-6.53029,53.349127,Kildare,Castletown,Ireland,"Gardening,Nature and Wildlife,Gardens,Garden"
Kinneigh Round Tower,http://www.coppeenheritage.com,3532646078,-8.9755223,51.764111,Cork,,Ireland,Historic Houses and Castle
Ceann Sléibhe (Slea Head) Discovery Point,,,-10.4553373,52.1050217,Kerry,,Ireland,Discovery Point
Dromana House Gardens,https://dromanahouse.com,3532496144,-7.8651795,52.1075711,Waterford,Cappoquin,Ireland,"Walking,Gardens,Garden,Tour"
Kissane Sheep Farm,https://www.kissanesheepfarm.com/,353647000000,-9.6325947,51.9486423,Kerry,,Ireland,"Agriculture,Nature and Wildlife,Visitor Farm,Tour"
Kilkieran High Cross,http://www.megalithicireland.com/High%20Cross%20Kilkieran.htm,353568000000,-7.3808278,52.39794,Kilkenny,,Ireland,"Church Abbey,Monastery,Churches,Abbeys and Monastery"
Tearmann Community Garden,https://facebook.com/tearmannbaltinglass,353864000000,-6.7045177,52.9360363,Wicklow,,Ireland,"Gardens,Garden"
Geokaun Mountain,,,-10.345704,51.922484,Kerry,Valentia Island,Ireland,Discovery Point
Trá Oilí (Elly Beach),,,-10.086517,54.162316,Mayo,,Republic of Ireland,Discovery Point
Monaghan County Museum,http://monaghan.ie/museum,3534782928,-6.9724846,54.2478562,Monaghan,,Ireland,"Historic Houses and Castle,Museums and Attraction"
Ballyconnell Canal Loop,http://www.irishtrails.ie/Trail/Ballyconnell---Canal-loop/70/,,-7.583179531,54.11616655,Cavan,Ballyconnell,Ireland,"Walking,Natural Landscape"
Carlow Castle,https://carlowtourism.com/carlow-castle-2,353599000000,-6.935935,52.8362564,Carlow,,Ireland,"Castle,Historic Houses and Castle,Ruins"
Hill of Tara,http://www.heritageireland.ie/en/midlands-eastcoast/hilloftara,353469000000,-6.611649,53.5788114,Meath,,Ireland,"Photography,Learning,Walking,Museums and Attraction,Ruins,Historic Houses and Castle,Cafe,Food and Drink,Tour"
National Folklore Collection,http://www.ucd.ie/irishfolklore,+353(0)17168216,-6.21882,53.30680741,Dublin,,Ireland,"Learning,Museums and Attraction,Literary Ireland,Cafe,Food and Drink,Tour"
Greek Orthodox Church,http://www.helleniccommunity.ie/church/,+353(0)50545849,-6.28974,53.349727,Dublin,,Republic of Ireland,"Church Abbey,Monastery,Churches,Abbeys and Monastery"
St. Patrick's Trail - Driving Route,http://www.carlowtourism.com,+353(0)599131554,-6.928555,52.83657,Carlow,,Ireland,"Activity Operator,Church Abbey,Monastery,Churches,Abbeys and Monastery,Museums and Attraction,Ruins,Historic Houses and Castle"
Celtic & Prehistoric Museum,http://www.facebook.com/The-Celtic-Prehistoric-Museum-271708022869479,353669000000,-10.393221,52.112549,Kerry,Ventry,Republic of Ireland,"Photography,Learning,Walking,Activity Operator,Forest Park,Park and Forest Walk,Museums and Attraction,Natural Landscape"
Clare Heritage & Genealogy Centre,http://www.clareroots.com,353657000000,-9.0627719,52.9449817,Clare,Corofin,Ireland,"Covid Safety Charter,Learning,Activity Operator,Tracing Your Ancestors,Museums and Attraction"
Dungarvan Castle,https://heritageireland.ie/places-to-visit/dungarvan-castle/,3535848144,-7.616151105,52.08926486,Waterford,Dungarvan,Republic of Ireland,"Historic Houses and Castle,Castle,Museums and Attraction"
Howth Castle,http://howthcastle.ie,+353(0)18321027,-6.079225289,53.3865384,Dublin,Howth,Republic of Ireland,"Covid Safety Charter,Golf,Walking,Historic Houses and Castle,Castle"
The Gaiety Theatre,http://www.gaietytheatre.ie,+353(0)16468600,-6.26163,53.340387,Dublin,,Republic of Ireland,"Historic Houses and Castle,Venue,Comedy,Music,Cafe,Food and Drink,Food Shops,Shopping,Tour"
Wicklow's Historic Gaol,https://www.wicklowshistoricgaol.com,35340461599,-6.0373008,52.9788867,Wicklow,,Ireland,"Covid Safety Charter,Activity Operator,Tracing Your Ancestors,Museums and Attraction,Cafe,Food and Drink,Tour"
Henry Grattan,,,-6.260889,53.34435,Dublin,Dublin City,Republic of Ireland,Public Sculpture
Coolaught Gardens,https://www.facebook.com/CoolaughtGardens/,353539000000,-6.7186105,52.4686372,Wexford,Enniscorthy,Ireland,"Gardens,Garden,Food Shops,Shopping"
Dolly's Cottage,https://www.facebook.com/DollysCottage,353719000000,-8.5841759,54.270777,Sligo,Strandhill,Ireland,"Castle,Historic Houses and Castle"
Carlingford Design House - Garrett Mallon Jewellery,http://www.carlingforddesignhouse.ie,353429000000,-6.187375407,54.04272392,Louth,Carlingford,Ireland,"Craft,Shopping,Learning,Art Gallery,Activity Operator"
Shroove Beach,https://www.blueflag.global/show-site?siteId=6598,+353(0)749363451,-6.9289318,55.2270151,Donegal,,Ireland,Beach
Ballitore Library & Quaker Museum,http://www.kildare.ie/Library/Library/BallitoreLibrary,353599000000,-6.814924,53.009722,Kildare,Ballitore,Ireland,Museums and Attraction
Irish Georgian Society,http://www.igs.ie,+353(0)16798675,-6.250557,53.338964,Dublin,Dublin,Republic of Ireland,"Learning,Historic Houses and Castle,Food Shops,Shopping,Tour"
Toe Head Bay,,,-9.2476666,51.493251,Cork,Castletownshend,Ireland,Discovery Point
Bram Stoker’s Castle Dracula Experience Dublin,http://www.CastleDracula.ie,+353(0)18512151,-6.229030364,53.36303247,Dublin,Clontarf,Ireland,"Activity Operator,Museums and Attraction,Literary Ireland,Venue,Music,Food Shops,Shopping"
Treaty Stone,https://www.limerick.ie/discover/eat-see-do/history-heritage/historic-attractions/treaty-stone,,-8.628088,52.6696547,Limerick,,Ireland,"Photography,Learning,Public Sculpture"
Patrick Kavanagh,,,-6.2475417,53.3336867,Dublin,,Ireland,"Public Sculpture,Literary Ireland"
Granard Motte and Bailey,,353433000000,-7.500683,53.775466,Longford,Granard,Ireland,"Ruins,Historic Houses and Castle"
The Black Church,https://www.dublincity.ie/dublin-buildings/black-church,,-6.2679431,53.3546532,Dublin,,Ireland,"Historic Houses and Castle,Church Abbey,Monastery,Churches,Abbeys and Monastery"
Clonfert Pet Farm,https://www.clonfertpetfarm.com/,35316016314,-6.6745734,53.3618657,Kildare,Maynooth,Republic of Ireland,"Visitor Farm,Cafe,Food and Drink"
Ballymorris Pottery,http://ballymorrispottery.ie,35361357118,-8.77213,52.6906707,Clare,Cratloe,Ireland,"Craft,Shopping,Learning,Shopping Centres and Department Store,Art Gallery,Activity Operator,Food Shops"
Killaghy Castle,http://www.castlesinireland.com/castle-in-tipperary-killaghy-castle-tipperary,,-7.5144163,52.5172294,Tipperary,Mullinahone,Ireland,"Castle,Historic Houses and Castle"
Cill Rialaig Arts Centre,https://cillrialaigartscentre.com,353669000000,-10.266434,51.832582,Kerry,Ballinskelligs,Ireland,"Craft,Shopping,Art Gallery,Cafe,Food and Drink,Food Shops"
St Johns Priory,,353568000000,-7.248489188,52.65368264,Kilkenny,Kilkenny City,Republic of Ireland,"Church Abbey,Monastery,Churches,Abbeys and Monastery"
Castlemorris Wood - Holly Loop,http://www.irishtrails.ie/Trail/Castlemorris---Holly-loop/120/,,-7.27840948,52.47060617,Kilkenny,Knocktopher,Ireland,"Walking,Natural Landscape"
Radharc na mBlascaoidí - Blaskets View,,,-10.455488,52.104973,Kerry,Dingle Peninsula,Ireland,Discovery Point
The Irish Dance Party,http://irishdanceparty.com,353877000000,-6.2548351,53.3507932,Dublin,Dublin,Ireland,"Covid Safety Charter,Restaurant,Food and Drink,Activity Operator,Historic Houses and Castle,Traditionally Irish,Venue,Music,Local Produce,Pubs and Bar,Food Shops,Shopping"
Mount Melleray Abbey,https://www.mountmellerayabbey.org,3535854404,-7.8572437,52.1872554,Waterford,Cappoquin,Ireland,"Historic Houses and Castle,Church Abbey,Monastery,Churches,Abbeys and Monastery,Cafe,Food and Drink,Food Shops,Shopping"
Leap Castle,http://leapcastle.net,353579000000,-7.8084534,53.0279902,Offaly,Leap,Ireland,"Castle,Historic Houses and Castle"
Coolcarrigan House Gardens,http://www.coolcarrigan.ie,35345863527,-6.8513095,53.3185654,Kildare,Naas,Ireland,"Walking,Historic Houses and Castle,Church Abbey,Monastery,Churches,Abbeys and Monastery,Gardens,Garden,Tour"
National Botanic Gardens - Kilmacurragh,http://botanicgardens.ie/kilmacurragh/,35318570909,-6.1478112,52.9292653,Wicklow,,Ireland,"Gardens,Garden,Cafe,Food and Drink"
Phoenix Park Visitor Centre and Ashtown Castle,http://www.phoenixpark.ie,+353(0)16770095,-6.331008,53.366091,Dublin,Phoenix Park,Republic of Ireland,"Covid Safety Charter,Walking,Activity Operator,Castle,Historic Houses and Castle,Gardens,Garden,Cafe,Food and Drink,Food Shops,Shopping"
Ballindoon Abbey,http://www.megalithicireland.com/Ballindoon%20Priory.html,353719000000,-8.323266467,54.08492133,Sligo,Ballymote,Republic of Ireland,"Church Abbey,Monastery,Churches,Abbeys and Monastery"
The Garden of Re-Imagination,https://twogreenshoots.com,353897000000,-9.5685205,51.7773885,Cork,,Ireland,"Food and Drink,Restaurant,Gardens,Garden,Artisan,Local Produce,Vegan,Vegetarian"
Griffith Park,,+353(0)18373290,-6.261854713,53.37055995,Dublin,Drumcondra,Republic of Ireland,"Forest Park,Park and Forest Walk,Walking,National Park,National and Forest Park,Public Park,Nature and Wildlife"
Curragh Beach,,,-7.70896021,51.96696584,Waterford,Ardmore,Ireland,Beach
Martry Mill,http://www.martrymill.ie,353868000000,-6.7865351,53.694016,Meath,Kells,Ireland,"Museums and Attraction,Tour"
Wild Ireland,https://www.wildireland.org,,-7.3386082,55.0522279,Donegal,,Republic of Ireland,"Covid Safety Charter,Visitor Farm,Tour"
Mossfield Organic Farm,http://www.mossfield.ie,353579000000,-7.8005629,53.060734,Offaly,,Ireland,Visitor Farm
University College Cork -UCC,http://www.ucc.ie/en/discover,353215000000,-8.492377,51.89182,Cork,Cork City,Republic of Ireland,"Restaurant,Historic Houses and Castle,Cafe,Food and Drink"
Guinness Gallery,http://www.guinnessgallery.com,+353(0)12897955,-6.184356,53.266725,Dublin,Foxrock,Republic of Ireland,"Craft,Shopping,Art Gallery,Food Shops"
Drumkeerin Heritage Centre,,353720000000,-8.147950078,54.17060467,Leitrim,,Republic of Ireland,Visitor Farm
Dublin City Archives,http://dublincity.ie/main-menu-services-recreation-culture-dublin-city-public-libraries-and-archive-heritage-and-histo-39,+353(0)16744999,-6.245201297,53.34313385,Dublin,,Republic of Ireland,"Learning,Tracing Your Ancestors,Historic Houses and Castle,Museums and Attraction"
Trá Mhór Beach,https://www.blueflag.global/show-site?siteId=6667,35314002202,-9.366709182,53.24649532,Galway,,Republic of Ireland,"Swimming,Swimming Pools and Water Park,Venue,Beach,Natural Landscape"
Tullylease Church And Cross Slabs,http://www.irishstones.org/place.aspx?p=861&i=12,,-8.9402469,52.316655,Cork,Tullylease,Ireland,"Church Abbey,Monastery,Churches,Abbeys and Monastery"
Dysert Oenghusa Church And Round Tower,http://www.megalithicireland.com/Dysert%20Aenghusa%20Round%20Tower.html,,-8.7447551,52.5210234,Limerick,,Ireland,"Church Abbey,Monastery,Churches,Abbeys and Monastery"
Sherkin Island,http://www.sherkinisland.ie,+353(0)214255100,-9.416534651,51.46952336,Cork,Sherkin Island,Republic of Ireland,"Craft,Shopping,Bird Watching,Nature and Wildlife,Cycling,Fishing,Angling,Sailing,Activity Operator,Swimming,Swimming Pools and Water Park,Venue,Walking,Discovery Point,Island,Offshore Island,Natural Landscape,Food and Drink,Pubs and Bar"
The James Joyce Centre,http://www.jamesjoyce.ie,+353(0)18788547,-6.259988,53.354157,Dublin,,Republic of Ireland,"Learning,Historic Houses and Castle,Museums and Attraction,Literary Ireland,Food Shops,Shopping,Tour,Walking"
Clonmore Castle,"http://www.megalithicireland.com/Clonmore%20Castle,%20Carlow.html",,-6.5751246,52.8282856,Carlow,Hacketstown,Ireland,"Castle,Historic Houses and Castle,Ruins"
Bantry House & Garden,http://www.bantryhouse.com/the-house.html,3532750047,-9.4645065,51.6774722,Cork,Bantry,Ireland,"Historic Houses and Castle,Gardens,Garden,Cafe,Food and Drink,Local Produce,Restaurant,Tour"
Blackrock Boathouse,http://www.visitblackrock.ie/places-of-interest,353872000000,-6.367440639,53.95728611,Louth,Blackrock,Ireland,"Walking,Historic Houses and Castle"
Westport Greenway,http://www.mayowalks.ie/WalkingTrails/Greenway/WestportGreenway/,,-9.5143467,53.8021307,Mayo,Westport,Ireland,"Walking,Natural Landscape"
The Masonic Centre,http://freemasonsnorthmunster.com,35361313399,-8.6256075,52.6704984,Limerick,,Ireland,"Learning,Historic Houses and Castle,Museums and Attraction,Tour"
Cool Planet Experience,https://www.coolplanetexperience.org,35315180197,-6.187439,53.184486,Wicklow,,Ireland,"Learning,Museums and Attraction,Cafe,Food and Drink"
World War 1 Trench Experience,http://www.cavanmuseum.ie/Default.aspx?StructureID_str=87,353499000000,-7.201083,53.8670567,Cavan,Kilmore,Ireland,"Photography,Learning,Museums and Attraction,Cafe,Food and Drink"
Irish Palatine Heritage Museum,http://www.irishpalatines.org,3536963511,-8.9442707,52.525501,Limerick,Rathkeale,Ireland,"Museums and Attraction,Cafe,Food and Drink,Food Shops,Shopping,Tour"
Curragh Military Museum,https://www.military.ie/en/public-information/defence-forces-museums/the-curragh-museum,35345445342,-6.8309714,53.1458507,Kildare,,Ireland,"Learning,Photography,Museums and Attraction,Tour"
Emlagh Loop,http://www.irishtrails.ie/trail/Emlagh-Loop/685/,,-10.27308976,51.82468114,Kerry,,Ireland,"Walking,Beach,Natural Landscape"
South Mayo Family Research Centre,http://www.mayo.irishroots.net/,353950000000,-9.222428,53.623485,Mayo,Ballinrobe,Republic of Ireland,"Tracing Your Ancestors,Museums and Attraction"
Ballinastoe Slí,http://trails.ie/map.php?keyword=ballinastoe,,-6.226409,53.1092776,Wicklow,Roundwood,Ireland,"Walking,Natural Landscape,Public Park,Nature and Wildlife"
Bodenstown Graveyard,,,-6.6651887,53.2660878,Kildare,,Ireland,"Learning,Ruins,Historic Houses and Castle"
Nolans Castle,http://www.enniscrone.ie/castle,353719000000,-9.0855335,54.2161835,Sligo,Enniscrone,Ireland,"Castle,Historic Houses and Castle"
Kilnaboy Medieval Church and Round Tower,,353657000000,-9.079651,52.972126,Clare,Ennis,Republic of Ireland,"Church Abbey,Monastery,Churches,Abbeys and Monastery"
Bourn Vincent Gallery,https://ulsites.ul.ie/visualarts/current-and-upcoming-events,35361333644,-8.573732,52.6744919,Limerick,,Ireland,"Craft,Shopping,Art Gallery"
Lismore Castle Art Gallery,http://www.lismorecastlearts.ie,3535854061,-7.9347132,52.1405878,Waterford,Lismore,Ireland,"Covid Safety Charter,Craft,Shopping,Art Gallery"
Aran Islands - Inisheer  - Inis Oírr,http://www.discoverinisoirr.com,3539975008,-9.5281381,53.0594423,Galway,,Ireland,"Island,Offshore Island"
Bá Bhaile Uí Thiarnáin (Ballyhiernan Bay),,,-7.7277017,55.247075,Donegal,,Ireland,Discovery Point
Camas Park Garden,https://www.tipperarytown.ie/see-and-do/camas-park-gardens,353863000000,-7.929296,52.53716,Tipperary,Cashel,Ireland,"Gardening,Nature and Wildlife,Gardens,Garden"
Cahervagliar Fort,http://www.coppeenheritage.com/archives/cahir/index.html,3532646078,-8.996941,51.792933,Cork,Coppeen,Republic of Ireland,"Ruins,Historic Houses and Castle"
Ballyteigue Strand,http://www.fishingireland.net,,-6.588429147,52.17149917,Wexford,Kilmore Quay,Republic of Ireland,"Fishing,Angling,Beach"
The Edmund Rice International Heritage Centre,https://www.facebook.com/edmundriceheritagecentre,35351874390,-7.1167957,52.2567373,Waterford,,Ireland,"Museums and Attraction,Food Shops,Shopping"
Mooghaun Bronze Age Hillfort,,,-8.8792287,52.7821867,Clare,,Ireland,Museums and Attraction
Droichead Arts Centre,http://www.droichead.com/,+353(0)419833946,-6.353303,53.714428,Louth,Drogheda,Republic of Ireland,"Craft,Shopping,Learning,Art Gallery,Cafe,Food and Drink,Pubs and Bar,Activity Operator"
The Butter Slip - Kilkenny,,,-7.252329391,52.65236152,Kilkenny,Kilkenny City,Ireland,Museums and Attraction
Knockdrinna Farmhouse Cheese,http://www.knockdrinna.com/,353869000000,-7.2282304,52.5364101,Kilkenny,Stoneyford,Ireland,"Food and Drink,Agriculture,Nature and Wildlife,Restaurant,Learning,Shopping,Visitor Farm,Artisan,Cafe,Local Produce,Activity Operator"
Ballinamuck Visitor Centre,http://visitlongford.ie/listings/ballinamuck-battlefield-visitors-centre,353880000000,-7.716717,53.865444,Longford,Ballinamuck,Ireland,"Historic Houses and Castle,Museums and Attraction"
Portrane Beach,,+353(0)18400077,-6.111352026,53.49614512,Dublin,Portrane,Republic of Ireland,Beach
St. Werburgh's Church,,+353(0)14783710,-6.269412,53.342932,Dublin,Dublin,Republic of Ireland,"Church Abbey,Monastery,Churches,Abbeys and Monastery"
The National Wax Museum Plus,http://www.waxmuseumplus.ie,+353(0)16718373,-6.2588737,53.3466684,Dublin,,Ireland,"Covid Safety Charter,Craft,Shopping,Learning,Museums and Attraction,Activity Operator,Food Shops"
Charles Stewart Parnell,,,-6.262251,53.353723,Dublin,Dublin City,Republic of Ireland,Public Sculpture
Freemasons Hall,http://freemason.ie/,+353(0)16761337,-6.255966,53.34108,Dublin,,Republic of Ireland,"Historic Houses and Castle,Museums and Attraction,Food Shops,Shopping,Tour"
The Gallery,http://www.thegallerydunfanaghy.com/,353749000000,-7.9772202,55.1791123,Donegal,Dunfanaghy,Ireland,"Craft,Shopping,Art Gallery"
Dominican Abbey Lorrha,"http://www.megalithicireland.com/Lorrha%20Dominican%20Friary,%20Tipperary.html",,-8.1257745,53.0908735,Tipperary,Lorrha,Ireland,"Church Abbey,Monastery,Churches,Abbeys and Monastery"
Curraghmore House & Gardens,http://curraghmorehouse.ie/,35351387101,-7.3593677,52.2902256,Waterford,Portlaw,Ireland,"Walking,Historic Houses and Castle,Gardens,Garden,Cafe,Food and Drink,Tour"
Mornington Garden,http://dalkeygardenschool.com,+353(0)872256365,-6.1132572,53.2717553,Dublin,Mornington,Ireland,"Gardening,Nature and Wildlife,Gardens,Garden"
Roscrea Castle and Damer House,https://heritageireland.ie/places-to-visit/roscrea-heritage-centre-roscrea-castle-and-damer-house/,35350521850,-7.7981524,52.9551159,Tipperary,Roscrea,Ireland,"Photography,Learning,Historic Houses and Castle,Castle,Gardens,Garden,Museums and Attraction,Tour"
Project Arts Centre,http://www.projectartscentre.ie,+353(0)18819613,-6.266229,53.34502,Dublin,Dublin City Centre,Republic of Ireland,"Craft,Shopping,Art Gallery,Activity Operator,Food Shops"
Duncannon Fort Tour,http://www.duncannonfort.ie,35351389530,-6.9369773,52.2208892,Wexford,Duncannon,Ireland,"Photography,Learning,Historic Houses and Castle,Museums and Attraction,Tour"
Ionad an Bhlascaoid Mhóir - The Blasket Centre,http://blasket.ie,353669000000,-10.4626825,52.1325179,Kerry,Dunquin,Ireland,"Activity Operator,Tracing Your Ancestors,Discovery Point,Museums and Attraction,Natural Landscape,Literary Ireland,Cafe,Food and Drink,Food Shops,Shopping,Tour"
Aultaghreagh Cottage Garden,http://www.aultaghreaghcottagegarden.com,353239000000,-9.083913637,51.77792113,Cork,Dunmanway,Republic of Ireland,"Walking,Gardens,Garden"
Beechdale Plantsplus Garden Centre,http://www.beechdale.ie,353539000000,-6.6880464,52.4607195,Wexford,Enniscorthy,Ireland,"Gardening,Nature and Wildlife,Gardens,Garden,Cafe,Food and Drink"
Daniel O'Connell - Fidelity - O'Connell Monument,http://www.talkingstatuesdublin.ie/statues/fidelity/,,-6.259333434,53.34770323,Dublin,Dublin City,Republic of Ireland,"Public Sculpture,Talking Statue"
Ballybunion Lahardane Walk,http://www.irishtrails.ie/Trail/Ballybunion-Loops---Lahardane-Hill-Walk/608/,+353(0)667121288,-9.653116507,52.50812603,Kerry,Ballybunion,Republic of Ireland,"Walking,Natural Landscape"
Caher Park,https://www.coillte.ie/site/caher-park/,+353(0)5241453,-7.923594282,52.37985108,Tipperary,Cahir,Republic of Ireland,"Fishing,Angling,Photography,Learning,Walking,Forest Park,Park and Forest Walk,Natural Landscape,Public Park,Nature and Wildlife"
Irish Military War Museum,https://www.irishmilitarywarmuseum.com,353864000000,-6.4805828,53.7625397,Meath,Collon,Ireland,"Museums and Attraction,Cafe,Food and Drink,Activity Operator,Tour"
Saltee Islands,http://www.salteeislands.info/,,-6.588815386,52.17249931,Wexford,Kilmore Quay,Republic of Ireland,"Bird Watching,Nature and Wildlife,Photography,Learning,Walking,Island,Offshore Island"
Leahy's Open Farm,https://leahysopenfarm.ie/,353838000000,-8.072923129,52.00899811,Cork,Dungourney,Republic of Ireland,"Covid Safety Charter,Restaurant,Climbing,Activity Operator,Visitor Farm,Cafe,Food and Drink"
Ballyheigue Beach ,https://www.blueflag.global/show-site?siteId=6643,353667000000,-9.8345312,52.3873514,Kerry,,Ireland,"Bird Watching,Nature and Wildlife,Fishing,Angling,Swimming,Swimming Pools and Water Park,Venue,Walking,Beach,Discovery Point,Natural Landscape"
Poulshone Beach,,,-6.224555489,52.61782494,Wexford,Poulshone,Republic of Ireland,Beach
An Chéibh Bheag (Cloghmore Pier),,,-9.9472967,53.880075,Mayo,,Ireland,"Fishing,Angling,Embarkation Point,Boat,Tour"
Garden of Europe,https://www.irishtourist.com/things-to-do/the-garden-of-europe/,3536821004,-9.4753219,52.4443441,Kerry,,Ireland,"Bird Watching,Nature and Wildlife,Gardening,Gardens,Garden,Public Park,Public Sculpture"
St Columba's Church,,,-6.879699,53.72754,Meath,Kells,Republic of Ireland,"Church Abbey,Monastery,Churches,Abbeys and Monastery"
Granagh Castle,https://visionsofthepastblog.com/2017/08/09/granagh-castle-kilkenny-ireland,,-7.16274,52.28251,Kilkenny,,Ireland,"Castle,Historic Houses and Castle"
Rathgall Stone Fort,,,-6.663035,52.8022318,Wicklow,,Ireland,"Ruins,Historic Houses and Castle"
Swords Museum  and Fingal Genealogy,http://www.swordsheritage.com,35318400080,-6.2181267,53.4627797,Dublin,Swords,Ireland,"Learning,Tracing Your Ancestors,Museums and Attraction"
Exchange Dublin,https://exchangedublin.ie/,,-6.268322263,53.34454746,Dublin,,Ireland,"Craft,Shopping,Art Gallery,Activity Operator"
Maynooth Ecclesiastical Museum,http://museum.maynoothcollege.ie,353879000000,-6.5981017,53.3786106,Kildare,Maynooth,Ireland,Museums and Attraction
Quin Abbey,https://www.clare.ie/do/quin-abbey/,35391844084,-8.86307,52.8191037,Clare,Quin,Ireland,"Church Abbey,Monastery,Churches,Abbeys and Monastery"
Carlingford Castle,https://carlingfordheritagecentre.com/portfolio/king-johns-castle/,353429000000,-6.1868336,54.0432392,Louth,Carlingford,Ireland,"Castle,Historic Houses and Castle,Ruins"
Powerscourt Waterfall,http://powerscourt.com/waterfall,35312046000,-6.210467,53.1466794,Wicklow,Enniskerry,Ireland,"Walking,Natural Landscape,Fast Food,Food and Drink,Restaurant"
Oileán Chloigeann (Claggan Island),,,-9.9527711,54.173036,Mayo,,Ireland,Discovery Point
Clare Island Yoga Retreat Centre,https://macallafarm.ie/,+353(0)9825412,-9.988141954,53.79245548,Mayo,Clare Island,Republic of Ireland,"Food and Drink,Restaurant,Cooking,Cookery,Learning,Horse Riding,Equestrian,Activity Operator,Fitness and Leisure,Venue,Visitor Farm,Local Produce,Vegetarian"
St. Luke's Church,http://www.liveatstlukes.com/,,-8.457078,51.904255,Cork,Cork City,Republic of Ireland,"Church Abbey,Monastery,Churches,Abbeys and Monastery,Venue,Music"
O'Reilly Theatre,http://www.oreillytheatre.com,+353(0)1858 6690,-6.262116,53.35551,Dublin,,Republic of Ireland,"Literary Ireland,Venue,Music,Food Shops,Shopping"
Cois na hAbhann Garden Home and Lifestyle Centre,http://www.coisnahabhann.ie,353539000000,-6.417507,52.620097,Wexford,Camolin,Ireland,"Gardening,Nature and Wildlife,Gardens,Garden,Cafe,Food and Drink"
Knockroe Passage Tomb,http://www.megalithicireland.com/Knockroe%20Passage%20Tomb.html,,-7.3995595,52.4319092,Kilkenny,,Ireland,"Church Abbey,Monastery,Churches,Abbeys and Monastery"
Ballinastoe and Lower Vartry Reservoir Slí na Sláinte,http://www.irishheart.ie/iopen24/walking-routes-t-8_197_200_208_210.html,,-6.202243035,53.091233,Wicklow,Roundwood,Ireland,"Walking,Natural Landscape"
Garryhill House,https://www.buildingsofireland.ie/buildings-search/building/10301651/garryhill-house-garryhill-county-carlow,353600000000,-6.848067,52.678048,Carlow,Bagenalstown,Republic of Ireland,"Castle,Historic Houses and Castle"
Leixlip Castle,http://intokildare.ie/listing/leixlip-castle,35316244430,-6.4906293,53.3620101,,,Ireland,"Agriculture,Nature and Wildlife,Photography,Learning,Walking,Historic Houses and Castle,Castle,Gardens,Garden,Tour"
Peter Cox Photography Gallery,http://www.petercox.ie/,353647000000,-9.5085599,52.0586039,Kerry,Killarney,Ireland,"Craft,Shopping,Photography,Learning,Art Gallery"
Arklow Maritime Museum,http://www.arklowmaritimeheritage.ie,353864000000,-6.1493991,52.7985048,Wicklow,Ferrybank,Ireland,Museums and Attraction
Lusk Round Tower,https://www.heritageireland.ie/en/midlands-eastcoast/luskheritagecentre/,+353(0)18331618,-6.167107,53.526025,Dublin,Lusk,Republic of Ireland,"Historic Houses and Castle,Church Abbey,Monastery,Churches,Abbeys and Monastery"
Victor's Way,http://victorsway.eu,35312818505,-6.2197346,53.0860515,Wicklow,,Ireland,"Gardens,Garden"
James Clarence Mangan,http://www.visitdublin.com,+353(0)16057700,-6.259664,53.338458,Dublin,Dublin City,Republic of Ireland,"Public Sculpture,Literary Ireland"
The National 1798 Rebellion Centre,http://www.1798centre.ie,353539000000,-6.5693797,52.4967188,Wexford,Enniscorthy,Ireland,"Covid Safety Charter,Museums and Attraction,Tour"
Garraí Fadó Garden,https://www.facebook.com/Garra%C3%AD-Fad%C3%B3-Garden-Beara-156532801063072,3532774844,-9.955257441,51.68546683,Cork,Eyeries,Ireland,"Gardening,Nature and Wildlife,Gardens,Garden,Food Shops,Shopping"
Cé Mhachaire Uí Rabhartaigh  (Min Larach Harbour),,,-8.1746006,55.146192,Donegal,,Ireland,Embarkation Point
The Warren Beach,http://www.blueflagireland.org/,+353(0)238833226,-8.998822828,51.56596951,Cork,Rosscarbery,Republic of Ireland,"Swimming,Swimming Pools and Water Park,Venue,Walking,Beach,Natural Landscape"
Inis Mór (Inishmore) Seaport,,,-9.719242279,53.13713245,Galway,Aran Islands,Ireland,"Restaurant,Bird Watching,Nature and Wildlife,Cycling,Shopping,Shopping Centres and Department Store,Swimming,Swimming Pools and Water Park,Venue,Walking,Discovery Point,Island,Offshore Island,Local Produce,Food and Drink,Pubs and Bar"
Irish Jewish Museum,http://www.jewishmuseum.ie/,+353(0)14531797,-6.269414,53.330748,Dublin,South Circular Road,Republic of Ireland,"Learning,Tracing Your Ancestors,Museums and Attraction,Tour"
The Hooker Brewery,http://www.galwayhooker.ie,353878000000,-8.92873146,53.2693066,Galway,Oranmore,Republic of Ireland,Museums and Attraction
Jenkinstown Wood - Walled Garden Loop,http://www.irishtrails.ie/Trail/Jenkinstown-Wood---Walled-Garden-loop/124/,,-7.289804987,52.73050689,Kilkenny,Jenkinstown,Ireland,"Walking,Gardens,Garden,Natural Landscape"
Cnoc Fola,,,-8.2895011,55.137202,Donegal,,Ireland,Discovery Point
Vanda Art Gallery,http://www.vandaluddy.com,353873000000,-9.052645,53.273518,Galway,,Ireland,"Craft,Shopping,Art Gallery"
The Thomas Fitzgerald Centre,https://www.limerick.ie/discover/eat-see-do/history-heritage/visitor-heritage-centres/thomas-fitzgerald-centre,353852000000,-8.5491367,52.4788934,Limerick,Newtown,Ireland,"Tracing Your Ancestors,Museums and Attraction,Tour"
Molly Malone,http://www.talkingstatuesdublin.ie/statues/molly-malone/,+353(0)16057700,-6.260949959,53.34373992,Dublin,Dublin,Republic of Ireland,"Public Sculpture,Talking Statue"
Inish Beg Island,http://www.inishbeg.com,+353(0)2821745,-9.352918849,51.52125347,Cork,Baltimore,Republic of Ireland,"Bird Watching,Nature and Wildlife,Walking,Island,Offshore Island,Natural Landscape,Cafe,Food and Drink"
O'Gorman's Lane Loop Walk,http://www.irishtrails.ie/Trail/O-Gormans-Lane-/583/,,-7.182288408,52.59235277,Kilkenny,Bennettsbridge,Ireland,"Walking,Natural Landscape"
Newcastle Woods,http://visitlongford.ie/trails/newcastle-woods-walking-trail,353433000000,-7.7261067,53.5621238,Longford,,Ireland,"Walking,Natural Landscape"
Avoca Studio Gallery,https://avocagallery.com/welcome-to-the-avoca-painting-school/,35340235555,-6.2272958,52.8800149,Wicklow,,Ireland,"Craft,Shopping,Art Gallery"
Ross Beach,https://www.blueflag.global/show-site?siteId=6682,35314002202,-9.1982368,54.2327505,Mayo,Killala,Ireland,"Swimming,Swimming Pools and Water Park,Venue,Beach"
Fethard Folk Farm and Transport Museum,http://fethard.com/attra/Museum.html,3535231516,-7.705323,52.468789,Tipperary,Fethard,Republic of Ireland,"Agriculture,Nature and Wildlife,Cycling,Museums and Attraction,Tour"
The John F. Kennedy Memorial Park,https://www.heritageireland.ie/en/south-east/thejohnfkennedyarboretum//,353469000000,-6.9337067,52.3209882,Wexford,New Ross,Ireland,"Covid Safety Charter,Gardening,Nature and Wildlife,Gardens,Garden"
Inishbiggle - Gubnadoogha Loop Walk,http://www.irishtrails.ie/Trail/Achill-Island---Gubnadoogha-Loop/494/,,-9.908755107,53.99601459,Mayo,Ballycroy,Republic of Ireland,"Walking,Island,Offshore Island"
Heir Island,http://www.heirisland.ie,+353(0)2821489,-9.438843958,51.49624463,Cork,Heir Island,Republic of Ireland,"Restaurant,Bird Watching,Nature and Wildlife,Cycling,Sailing,Activity Operator,Swimming,Swimming Pools and Water Park,Venue,Walking,Discovery Point,Island,Offshore Island,Natural Landscape,Cafe,Food and Drink"
General Post Office,http://www.anpost.ie/AnPost/History+and+Heritage/History/GPO+Dublin/,+353(0)17057000,-6.260654,53.349333,Dublin,,Republic of Ireland,"Historic Houses and Castle,Cafe,Food and Drink,Food Shops,Shopping"
Ballinesker Beach ,https://www.blueflag.global/show-site?siteId=6627,,-6.357798,52.3994171,Wexford,Curracloe,Ireland,"Swimming,Swimming Pools and Water Park,Venue,Walking,Beach"
Pleasure Cruisers,http://www.pleasurecruisers.ie,353863000000,-7.927676154,53.83131319,Leitrim,Roosky,Republic of Ireland,"Cruising,Activity Operator,River,Discovery Point,Boat,Tour"
Carlow Courthouse,http://www.igp-web.com/Carlow/courthouse.htm,,-6.931212085,52.83821114,Carlow,,Republic of Ireland,"Castle,Historic Houses and Castle"
Top of the Rock Viewing Platform Trail,https://facebook.com/rockviewingplatform,+353(0)872989250,-10.25257468,51.96038621,Kerry,Cahersiveen,Ireland,"Photography,Learning,Walking,Natural Landscape"
Foust Gallery,http://www.sarafoustartist.com,353863000000,-9.293533,52.9398625,Clare,,Ireland,"Craft,Shopping,Art Gallery,Food Shops"
Sandycove Beach,,,-6.116029992,53.28760763,Dublin,Sandycove,Ireland,Beach
Stillgarden Distillery,https://stillgardendistillery.com,35315572777,-6.3239661,53.336205,Dublin,Inchicore,Ireland,"Learning,Activity Operator,Museums and Attraction,Tour"
Kilcock Art Gallery,https://kilcockartgallery.ie/,35316287619,-6.6682154,53.3998824,Kildare,,Ireland,"Craft,Shopping,Art Gallery"
Science Gallery Dublin,https://dublin.sciencegallery.com,35318964091,-6.255503181,53.34386166,Dublin,,Ireland,"Covid Safety Charter,Learning,Activity Operator,Museums and Attraction,Cafe,Food and Drink,Food Shops,Shopping"
Cloyne Round Tower,http://cloyne.ie/about/round-tower,353215000000,-8.1202974,51.8620116,Cork,,Ireland,"Church Abbey,Monastery,Churches,Abbeys and Monastery"
Balrath Wood,,+353(0)18358022,-6.952315923,53.70557053,Meath,Balrath,Republic of Ireland,"Walking,Forest Park,Park and Forest Walk,National Park,National and Forest Park,Public Park,Nature and Wildlife"
UCC Visitors' Centre,https://www.ucc.ie/en/discover/visit/centre,353215000000,-8.491547,51.892774,Cork,,Republic of Ireland,"Historic Houses and Castle,Museums and Attraction,Food Shops,Shopping,Tour"
Rush Beach,,,-6.085017801,53.52901043,,,,Beach
Mullaghroe Beach,https://www.blueflag.global/show-site?siteId=6679,35314002202,-10.07506985,54.1409313,Mayo,,Republic of Ireland,"Bird Watching,Nature and Wildlife,Swimming,Swimming Pools and Water Park,Venue,Beach"
Stradbally Hall and Demesne,https://www.stradballyhall.ie/history,353868000000,-7.155546,53.0106018,Laois,Stradbally,Ireland,"Fishing,Angling,Photography,Learning,Activity Operator,Historic Houses and Castle,Venue,Music,Tour"
Fruitlawn Garden,http://www.arthurshackleton.com/fruitlawn.htm,353579000000,-7.400687,52.906624,Laois,,Ireland,"Gardening,Nature and Wildlife,Gardens,Garden,Tour"
Howth Writing Workshops,https://www.laraobrien.com,353853000000,-6.066913,53.3871806,Dublin,Howth,Republic of Ireland,"Learning,Activity Operator,Literary Ireland"
Christ Church Castlebar,http://www.tuam.anglican.org/aughaval-westport/castlebar-christ-church,,-9.299977,53.854419,Mayo,Castlebar,Republic of Ireland,"Historic Houses and Castle,Church Abbey,Monastery,Churches,Abbeys and Monastery"
Heywood Gardens,http://www.heritageireland.ie/en/midlands-eastcoast/heywoodgardens/,353579000000,-7.3005142,52.884145,Laois,Ballinakill,Ireland,"Gardening,Nature and Wildlife,Photography,Learning,Walking,Historic Houses and Castle,Gardens,Garden,Natural Landscape"
Skryne Church,https://www.skryneandrathfeighparish.ie/,3530470000000,-6.5631088,53.5859852,Meath,Skreen,Ireland,"Church Abbey,Monastery,Churches,Abbeys and Monastery"
Rattoo Round Tower,https://www.gokerry.ie/rattoo-round-tower/,,-9.650194,52.4426651,Kerry,,Ireland,"Church Abbey,Monastery,Churches,Abbeys and Monastery"
George Salmon,http://www.talkingstatuesdublin.ie/statues/george-salmon/,,-6.25735238,53.34455452,Dublin,,Ireland,"Public Sculpture,Talking Statue,Tour"
Camp Beach,,+353(0)667121288,-9.922619032,52.22567895,Kerry,Camp,Republic of Ireland,Beach
Liss Ard Gardens,https://lissardestate.ie/,3532840000,-9.25326172,51.53755547,Cork,Skibbereen,Republic of Ireland,"Walking,Gardens,Garden"
Ulster Canal Stores,http://www.ulstercanalstoresvisitorcentre.ie,3534752125,-7.236207,54.175851,Monaghan,Clones,Ireland,"Covid Safety Charter,Craft,Shopping,Photography,Learning,Historic Houses and Castle,Cafe,Food and Drink,Tour"
Ballynahow Castle,http://irishantiquities.bravehost.com/tipperary/ballynahow/ballynahow.html,,-7.8785802,52.6930716,Tipperary,,Ireland,"Castle,Historic Houses and Castle"
Carrowtemple,http://www.earlychristianireland.net/Counties/sligo/carrowtemple,353719000000,-8.517817239,53.98433101,Sligo,Gurteen,Republic of Ireland,"Church Abbey,Monastery,Churches,Abbeys and Monastery"
Inishbiggle - Bull's Mouth Loop Walk,http://www.irishtrails.ie/Trail/Achill-Island---Bull-s-Mouth-Loop/495/,,-9.900782034,53.99511637,Mayo,,Republic of Ireland,"Walking,Island,Offshore Island"
Whiskey Island - Dublin Distillery Trail,https://www.whiskeyisland.ie/dublin-distillery-trail/,35316877747,-6.2595459,53.3442059,Dublin,Dublin,Ireland,"Activity Operator,Museums and Attraction"
Redwood Castle,http://www.redwoodcastleireland.com,353949000000,-8.10585,53.138996,Tipperary,Lorrha,Ireland,"Photography,Learning,Historic Houses and Castle,Castle,Tour"
St. Moling's Trail - Driving Route,http://carlowtourism.com/,+353(0)599131554,-6.927646676,52.6008546,Carlow,,Ireland,"Activity Operator,Church Abbey,Monastery,Churches,Abbeys and Monastery,Historic Houses and Castle,Museums and Attraction,Ruins,Tour"
Clogher Castle,https://www.cloghancastle.ie,353719000000,-8.51182,53.9373,Sligo,Monasteraden,Republic of Ireland,"Castle,Historic Houses and Castle"
St John's Cathedral Sligo,http://www.sligocathedral.elphin.anglican.org,353719000000,-8.478143,54.270235,Sligo,Sligo Town,Republic of Ireland,"Historic Houses and Castle,Church Abbey,Monastery,Churches,Abbeys and Monastery"
Ballybunion South Beach ,https://www.blueflag.global/show-site?siteId=6642,353667000000,-9.684991112,52.49085217,Kerry,Ballybunion,Republic of Ireland,"Bird Watching,Nature and Wildlife,Surfing,Activity Operator,Swimming,Swimming Pools and Water Park,Venue,Walking,Beach,Discovery Point,Natural Landscape,Sports Venues"
Roonagh Pier,,+353(0)9825711,-9.9038798,53.761692,Mayo,Louisburgh,Ireland,Embarkation Point
Ballybeg Augustinian Priory,https://buttevantheritage.ie/poi/ballybeg-priory/,,-8.6698297,52.2195337,Cork,,Ireland,"Church Abbey,Monastery,Churches,Abbeys and Monastery"
Genealogy Service National Library of Ireland,https://www.nli.ie/en/intro/family-history-introduction.aspx,35316030200,-6.25509,53.340139,Dublin,Dublin City Centre,Republic of Ireland,"Learning,Tracing Your Ancestors,Museums and Attraction,Cafe,Food and Drink,Food Shops,Shopping"
Monicknew Trails,http://www.irishtrails.ie/Trail/Monicknew---Valley-Walk/256/,,-7.546328954,53.07598412,Laois,Clonaslee,Ireland,"Walking,Natural Landscape"
Railway Preservation Society Of Ireland,http://www.steamtrainsireland.com,+353(0)14800553,-6.152749,53.282627,Dublin,,Republic of Ireland,"Transport,Activity Operator,Museums and Attraction,Coach,Road"
Maynooth Castle,https://www.heritageireland.ie/en/midlands-eastcoast/maynoothcastle,35316286744,-6.5943469,53.3808581,Kildare,Maynooth,Ireland,"Photography,Learning,Walking,Historic Houses and Castle,Castle,Museums and Attraction,Ruins,Literary Ireland,Venue,Music,Tour"
Knockreer House And Gardens,https://www.killarneynationalpark.ie/,353647000000,-9.5242233,52.0592664,Kerry,Killarney,Ireland,"Bird Watching,Nature and Wildlife,Gardening,Learning,Photography,Walking,Gardens,Garden,National Park,National and Forest Park,Natural Landscape,Public Park"
Trinitarian Monastery,http://www.adareparish.ie,35361396172,-8.788871,52.564855,Limerick,Adare,Republic of Ireland,"Historic Houses and Castle,Church Abbey,Monastery,Churches,Abbeys and Monastery"
Kells High Crosses,http://www.megalithicireland.com,35318358022,-6.879369,53.727585,Meath,Kells,Republic of Ireland,"Photography,Learning,Church Abbey,Monastery,Churches,Abbeys and Monastery,Ruins,Historic Houses and Castle"
Lough Hyne,,,-9.3035692,51.506063,Cork,Skibbereen,Ireland,Discovery Point
Meeting Place,http://www.talkingstatuesdublin.ie/statues/meeting-place/,,-6.26328888,53.3467344,Dublin,,Ireland,"Public Sculpture,Talking Statue"
Gallarus Oratory Visitor Centre,http://www.heritageireland.ie/en/south-west/gallarusoratory,353669000000,-10.349411,52.172722,Kerry,Gallarus,Republic of Ireland,"Covid Safety Charter,Museums and Attraction"
Macalla Farm,https://macallafarm.ie,353873000000,-9.9754118,53.816232,Mayo,,Ireland,"Food and Drink,Restaurant,Learning,Activity Operator,Island,Offshore Island,Artisan,Local Produce,Vegan,Vegetarian"
Inis Bó Finne (Inishbofin Island) - Galway,,,-10.212838,53.614235,Galway,,Ireland,Discovery Point
Doolin Pier,,,-9.4045007,53.015342,Clare,Doolin,Ireland,Embarkation Point
Sligo County Library,https://sligolibrary.ie/,353719000000,-8.472651,54.2727356,Sligo,,Ireland,"Learning,Tracing Your Ancestors,Literary Ireland,Activity Operator"
Castlelyons Dominican Friary,http://irishantiquities.bravehost.com/cork/castlelyons/castlelyons.html,,-8.2335,52.089393,Cork,Castlelyons,Republic of Ireland,"Church Abbey,Monastery,Churches,Abbeys and Monastery"
Seefin Viewpoint,,,-9.710927,51.595522,Cork,Kilcrohane,Ireland,Discovery Point
Joan Clancy Art Gallery,https://www.joanclancygallery.com/,3535846205,-7.597627767,52.05715185,Waterford,Ring,Republic of Ireland,"Craft,Shopping,Art Gallery"
Minard Castle,http://www.megalithicireland.com/Minard%20Castle.html,,-10.1104518,52.1260249,Kerry,Kilmurry,Ireland,"Castle,Historic Houses and Castle"
Sean Burns Gallery,http://www.seanburnsdesign.blogspot.com,+353(0)949372626,-8.996791,53.712736,Mayo,Claremorris,Ireland,"Craft,Shopping,Art Gallery"
Díseart,http://www.diseart.ie,353669000000,-10.270519,52.1418479,Kerry,Dingle,Ireland,"Learning,Church Abbey,Monastery,Churches,Abbeys and Monastery,Gardens,Garden"
Ballymurrin Quaker Farmstead,http://www.ballymurrinquakerfarmstead.eu,35340448206,-6.1066529,52.9341601,Wicklow,,Ireland,"Agriculture,Nature and Wildlife,Historic Houses and Castle,Museums and Attraction"
Carne Beach,https://www.blueflag.global/show-site?siteId=17013,,-6.3525038,52.1983741,Wexford,Carna,Ireland,"Swimming,Swimming Pools and Water Park,Venue,Walking,Beach"
Steam Museum,http://www.irishsteam.ie,353579000000,-7.143382052,53.01237283,Laois,Stradbally,Republic of Ireland,"Photography,Learning,Museums and Attraction"
The Emigrant Trail,http://www.heritageisland.com/attractions/kennedy-homestead-and-emigrant-trail,35351388264,-6.947598722,52.39361615,Wexford,New Ross,Ireland,Museums and Attraction
James Joyce House of the Dead,http://www.jamesjoycehouse.ie,,-6.282819,53.34629,Dublin,Dublin City Centre,Republic of Ireland,"Historic Houses and Castle,Literary Ireland"
The Trinity Tree Dingle,,,-10.271003,52.141565,Kerry,Dingle,Republic of Ireland,Public Sculpture
St Josephs Church Carrickmacross,http://www.stjosephscarrickmacross.ie,353430000000,-6.715462,53.976936,Monaghan,Carrickmacross,Republic of Ireland,"Historic Houses and Castle,Church Abbey,Monastery,Churches,Abbeys and Monastery"
Shannon Dolphin and Wildlife Centre,http://www.shannondolphins.ie,353659000000,-9.4969951,52.6350948,Clare,Kilrush,Ireland,"Learning,Museums and Attraction"
Seamus Heaney: Listen Now Again,https://www.nli.ie/en/udlist/current-exhibitions.aspx?article=0ebd1d65-6087-4f38-a2a0-467de598b745,,-6.2594127,53.3450832,Dublin,Dublin City,Republic of Ireland,"Learning,Museums and Attraction,Literary Ireland"
Annaloughan Loop,http://www.irishtrails.ie/Trail/Annaloughan-loop/488/,+353(0)429352111,-6.186023506,54.03790008,Louth,Jenkinstown,Republic of Ireland,"Walking,Natural Landscape"
The Sensory Gardens,,+353(0)578731325,-7.346580271,52.91530961,Laois,Abbeyleix,Republic of Ireland,"Gardening,Nature and Wildlife,Gardens,Garden"
Keel Uphill Downhill Loop,http://irishtrails.ie/Trail/Keel-Uphill-Downhill-Loop-Walk/666/,,-9.756397046,52.17636808,Kerry,Castlemaine,Ireland,"Walking,Natural Landscape"
Killeshin Romanesque Doorway,,353599000000,-6.997807671,52.84793949,Carlow,Killeshin,Republic of Ireland,"Church Abbey,Monastery,Churches,Abbeys and Monastery"
Ballymalis Castle,https://www.inspirock.com/ireland/killarney/ballymalis-castle-a58204201,353647000000,-9.6924377,52.0845424,Kerry,,Ireland,"Castle,Historic Houses and Castle"
Derreen Gardens,http://www.derreengarden.com,353647000000,-9.7770789,51.7662402,Kerry,,Ireland,"Bird Watching,Nature and Wildlife,Gardening,Gardens,Garden,Cafe,Food and Drink"
Howth Castle Cookery School,https://howthcastlecookeryschool.ie/,+353(0)18396182,-6.079401,53.386105,Dublin,Howth,Republic of Ireland,"Cooking,Cookery,Learning,Activity Operator,Castle,Historic Houses and Castle,Local Produce,Food and Drink,Restaurant"
Market House Design,https://www.craftinireland.com/events/details/market-house-design,353949000000,-6.2948238,52.6756109,Wexford,,Ireland,"Craft,Shopping,Shopping Centres and Department Store,Art Gallery,Food Shops"
Tombrick Garden,https://www.discoverireland.ie/Arts-Culture-Heritage/tombrick-garden/76568,353539000000,-6.569058713,52.5809255,Wexford,Ballycarney,Republic of Ireland,"Gardening,Nature and Wildlife,Gardens,Garden"
Grange Loops - Rooskey Loop,http://www.irishtrails.ie/trails.aspx?c=Louth,,-6.188670914,54.04287039,Louth,Grange,Ireland,"Walking,Natural Landscape"
Architectural History Ireland,https://www.riai.ie/discover-architecture/architecture-tours,+353(0)16761703 ,-6.2473358,53.3399625,Dublin,,Ireland,"Walking,Activity Operator,Historic Houses and Castle,Tour"
Coleman Irish Music Centre - Ceoláras Coleman,http://www.colemanirishmusic.com,+353(0)719182599,-8.522950374,53.99621266,Sligo,Gurteen,Republic of Ireland,"Covid Safety Charter,Museums and Attraction,Shopping,Traditionally Irish,Venue,Music,Food Shops"
Oldbawn (Newtown) Beach,,,-6.2006641,52.5530469,,,Ireland,Beach
Rinn Duin - Warren Point Loop,https://www.sportireland.ie/outdoors/walking/trails/rinn-duin-warren-point-loop?county=53&grade=402&length=All#list,353907000000,-7.996944291,53.54103449,Roscommon,,Republic of Ireland,"Walking,Castle,Historic Houses and Castle,Ruins"
Dunree Head,,,-7.5532803,55.196704,Donegal,Buncrana,Ireland,Discovery Point
Long Island Discovery Points,,,-9.5685117,51.4921855,Cork,Long Island,Ireland,Discovery Point
St. Mary's Pro Cathedral,http://www.procathedral.ie,+353(0)18745441,-6.258885,53.351138,Dublin,Dublin City,Republic of Ireland,"Church Abbey,Monastery,Churches,Abbeys and Monastery,Venue,Music,Food Shops,Shopping"
Famine Warhouse 1848,http://heritageireland.ie/visit/places-to-visit/famine-warhouse-1848/,353879000000,-7.5222099,52.6193986,Tipperary,Ballingarry,Ireland,"Historic Houses and Castle,Museums and Attraction"
Kerr's Bookshop,http://www.kerrsbookshop.ie,353239000000,-8.8869602,51.6232219,Cork,Clonakilty,Ireland,"Shopping,Shopping Centres and Department Store,Literary Ireland,Food Shops"
Rare and Recent Books,https://www.rareandrecent.com/,353852000000,-9.286348,53.5413688,Mayo,,Ireland,"Shopping,Shopping Centres and Department Store,Literary Ireland,Food Shops"
Portmarnock Beach,http://blueflagireland.org/velvet-strand-portmarnock-co-dublin/beach-description.654.html,,-6.123452332,53.42560582,Dublin,Portmarnock,Ireland,"Swimming,Swimming Pools and Water Park,Venue,Walking,Beach"
St. Fethlimidh’s Cathedral,https://kilmorecathedralcavan.wordpress.com/,353494000000,-7.414743377,53.97973685,Cavan,Kilmore,Republic of Ireland,"Historic Houses and Castle,Church Abbey,Monastery,Churches,Abbeys and Monastery"
Annestown Beach ,,35351875823,-7.2727997,52.1391984,,,Ireland,"Surfing,Activity Operator,Swimming,Swimming Pools and Water Park,Venue,Walking,Beach,Natural Landscape"
Culleton’s Gap Beach ,,,-6.365338225,52.3718065,Wexford,Curracloe,Ireland,Beach
Clahane,,,-9.423185,52.9326516,Clare,Liscannor,Ireland,Discovery Point
Ballinamuck Bog Loop,http://www.irishtrails.ie/Trail/Ballinamuck---Bog-Walk/139/,,-7.717482949,53.86680946,Longford,Ballinamuck,Ireland,"Walking,Natural Landscape"
Slea Head Famine Cottages and Sheep Dog Trials,http://www.famine-cottage.com,353878000000,-10.4120564,52.1054048,Kerry,Fahan,Ireland,"Agriculture,Nature and Wildlife,Tracing Your Ancestors,Historic Houses and Castle,Visitor Farm,Activity Operator"
Patrickstown Viewing Point,,,-7.085113,53.74976,Meath,Oldcastle,Ireland,Natural Landscape
Dublin Falconry,https://www.dublinfalconry.ie/,+353(0)876341574,-6.4222378,53.3794206,Dublin,Castleknock,Ireland,"Falconry,Nature and Wildlife,Learning,Activity Operator,Castle,Historic Houses and Castle,Cafe,Food and Drink"
Ballynacourty Gardens,https://www.limerick.ie/discover/eat-see-do/nature-wildlife/gardens/ballynacourty-gardens,35361396409,-8.935327,52.643399,Limerick,Ballysteen,Republic of Ireland,"Gardening,Nature and Wildlife,Gardens,Garden"
Michael Collins Centre,http://www.michaelcollinscentre.com,353239000000,-8.821391,51.6431607,Cork,Clonakilty,Ireland,"Covid Safety Charter,Learning,Museums and Attraction,Tour"
Bog of Frogs Trail,https://visithowth.ie/the-bog-of-frogs-trail/,35318323347,-6.066380923,53.38800343,Dublin,Howth,Republic of Ireland,"Walking,Forest Park,Park and Forest Walk,Marina,Venue,Natural Landscape"
Dublin City Hall,http://www.dublincityhall.ie,+353(0)12222204,-6.267149169,53.34392243,Dublin,,Republic of Ireland,"Historic Houses and Castle,Museums and Attraction,Cafe,Food and Drink"
Cross Strand Beach,http://www.cleancoastsireland.org/,,-9.909850128,53.71633236,Mayo,Louisburgh,Ireland,"Surfing,Activity Operator,Beach"
Kenmare River View,,,-9.9850622,51.725184,Cork,Ardgroom,Ireland,Discovery Point
Yeats: The Life and Works of William Butler Yeats,http://www.nli.ie/yeats,+353(0)16030277,-6.254641,53.341081,Dublin,Dublin City,Republic of Ireland,"Learning,Museums and Attraction,Literary Ireland,Cafe,Food and Drink,Food Shops,Shopping"
Gortavoher,https://www.coillte.ie/site/gortavoher/,+353(0)61337322,-8.159114741,52.47418845,Tipperary,,Republic of Ireland,"Bird Watching,Nature and Wildlife,Photography,Learning,Walking,Forest Park,Park and Forest Walk,Natural Landscape"
Tech Amergin,http://www.techamergin.com,353669000000,-10.172331,51.829585,Kerry,Waterville,Ireland,"Craft,Shopping,Learning,Movies,Cinema,Venue,Art Gallery"
The Main Guard,https://www.heritageireland.ie/en/south-east/themainguard/,353526000000,-7.7014361,52.3529682,Tipperary,Oldbridge,Ireland,"Historic Houses and Castle,Museums and Attraction,Tour"
Murrooghtoohy,,,-9.2761731,53.140459,Clare,Fanore,Ireland,Discovery Point
Leprechaun and Fairy Cavern,http://www.thelastleprechaunsofireland.com/the-leprechaun-cavern,353429000000,-6.177470009,54.04140882,Louth,Carlingford,Ireland,"Learning,Museums and Attraction,Venue,Comedy,Tour"
Dalkey Castle & Heritage Centre,https://www.dalkeycastle.com,35312858366,-6.1055397,53.2779072,Dublin,Dalkey,Ireland,"Covid Safety Charter,Historic Houses and Castle,Castle,Museums and Attraction,Literary Ireland,Food Shops,Shopping,Tour"
The Skellig Experience,http://www.skelligexperience.com,353669000000,-10.3675198,51.8899083,Kerry,,Ireland,"Covid Safety Charter,Cruising,Activity Operator,Museums and Attraction,Cafe,Food and Drink,Boat,Tour,Food Shops,Shopping"
Our Lady's Island Monastery,http://www.ourladysisland.ie,353539000000,-6.381269,52.210738,Wexford,Rosslare,Republic of Ireland,"Bird Watching,Nature and Wildlife,Walking,Church Abbey,Monastery,Churches,Abbeys and Monastery,Ruins,Historic Houses and Castle,Cafe,Food and Drink"
Vinegar Hill,http://www.vinegarhill.ie,353539000000,-6.5535099,52.5018788,Wexford,Enniscorthy,Ireland,"Historic Houses and Castle,Natural Landscape,Ruins"
St. Kilians Heritage Centre,http://www.stkiliansheritagecentre.ie,353469000000,-6.9569857,53.8126897,Cavan,Mullagh,Ireland,"Museums and Attraction,Shopping,Cafe,Food and Drink,Tour"
Horn Head,,,-7.9588786,55.212163,Donegal,Dunfanaghy,Ireland,Discovery Point
Com an Chiste (Coomakista),,,-10.167109,51.776386,Kerry,Caherdaniel,Ireland,Discovery Point
Windgap Village Loop,http://facebook.com/windgap.tidytowns,+353(0)874186077,-7.398741817,52.46414155,Kilkenny,Windgap,Ireland,"Walking,Natural Landscape"
Arthur Griffith,,,-6.254252,53.340122,Dublin,,Republic of Ireland,Public Sculpture
Dunmore East Beach ,https://www.blueflag.global/show-site?siteId=6630,35351875823,-6.997545776,52.15090985,Waterford,Dunmore,Republic of Ireland,"Swimming,Swimming Pools and Water Park,Venue,Walking,Beach,Natural Landscape"
Kyrie Eleison Abbey,http://homepage.tinet.ie/~abbeydorney/Kyrieeleisonpictures.html,,-9.6871592,52.3534185,Kerry,Abbeydorney,Ireland,"Church Abbey,Monastery,Churches,Abbeys and Monastery"
Coomanaspic,,,-10.367267,51.85617,Kerry,Portmagee,Ireland,Discovery Point
The Abbey Of Mount Saint Joseph,http://www.msjroscrea.ie/,35350525600,-7.855698,52.963705,Tipperary,Roscrea,Republic of Ireland,"Church Abbey,Monastery,Churches,Abbeys and Monastery"
Camolin Potting Shed Garden,https://www.camolinpottingshed.com/,353866000000,-6.4604758,52.6148075,Wexford,Camolin,Ireland,"Gardening,Nature and Wildlife,Gardens,Garden"
Gleninagh Castle,,,-9.205829,53.1377228,Clare,,Ireland,"Castle,Historic Houses and Castle"
Sherkin Island Discovery Point,,,-9.417292775,51.46654718,Cork,,Ireland,Discovery Point
Rinn Duin Castle Loop,https://www.sportireland.ie/outdoors/walking/trails/rinn-duin-castle-loop?county=53&grade=402&length=All#list,+353(0)906630252,-8.00432573,53.54419666,Roscommon,,Republic of Ireland,"Walking,Castle,Historic Houses and Castle,Ruins"
Castledermot Round Tower & High Cross & St. Davids Graveyard,http://www.kildare.ie/heritage/Grose-Antiquities-1792/castledermot-church-and-round-tower.asp,,-6.834859,52.9103756,Kildare,,Ireland,"Photography,Learning,Historic Houses and Castle,Church Abbey,Monastery,Churches,Abbeys and Monastery"
"St Peter's Roman Catholic Church, Drogheda",http://www.saintpetersdrogheda.ie,353420000000,-6.3533726,53.7150105,Louth,Drogheda,Ireland,"Photography,Learning,Historic Houses and Castle,Church Abbey,Monastery,Churches,Abbeys and Monastery"
Fenit Beach ,https://www.blueflag.global/show-site?siteId=6647,353667000000,-9.8576838,52.277572,Kerry,,Ireland,"Bird Watching,Nature and Wildlife,Fishing,Angling,Sailing,Activity Operator,Surfing,Swimming,Swimming Pools and Water Park,Venue,Walking,Beach,Discovery Point,Embarkation Point,Marina,Natural Landscape,Public Sculpture"
Valentia Island Heritage Centre,http://www.vhc.cablehistory.org,353669000000,-10.294597,51.925531,Kerry,,Ireland,"Tracing Your Ancestors,Museums and Attraction,Food Shops,Shopping"
Culleenamore Middens,http://www.carrowkeel.com/sites/coolrea/culleenamore.html,,-8.6092376,54.260578,Sligo,Strandhill,Ireland,"Church Abbey,Monastery,Churches,Abbeys and Monastery"
Stonehall Wildlife Park,https://www.stonehallvisitorfarm.com/,35361393940,-8.8679248,52.6076502,Limerick,,Ireland,"Visitor Farm,Cafe,Food and Drink,Tour"
Roe & Co Whiskey Distillery,https://roeandcowhiskey.com,35316435999,-6.2856618,53.3436766,Dublin,Dublin,Ireland,"Food and Drink,Restaurant,Activity Operator,Museums and Attraction,Cafe,Pubs and Bar,Food Shops,Shopping,Tour"
Galty Castle Wood,http://www.coillteoutdoors.ie/sites_and_trails/recreation_site_information/?rec_site=139&activity=&no_cache=1,+353(0)61337322,-8.176111235,52.32377669,Limerick,,Republic of Ireland,"Photography,Learning,Walking,Forest Park,Park and Forest Walk,Natural Landscape,Public Park,Nature and Wildlife"
Glenroe Open Farm,https://glenroefarm.ie/,35312872288,-6.0536942,53.1140031,Wicklow,Kilcoole,Ireland,"Covid Safety Charter,Agriculture,Nature and Wildlife,Visitor Farm,Cafe,Food and Drink"
Ferns Castle,http://www.heritageireland.ie/en/south-east/fernscastle,353539000000,-6.4991671,52.5906881,Wexford,,Ireland,"Historic Houses and Castle,Castle,Ruins,Tour"
Millennium Garden of Time,https://youghal.ie/,3532420769,-7.854440234,51.95124266,Cork,Youghal,Republic of Ireland,"Gardening,Nature and Wildlife,Gardens,Garden"
Bere Island (West End Pier),,,-9.866889,51.6332349,Cork,,Ireland,Discovery Point
Jeremiah O'Donovan Rossa,,,-6.259703,53.338446,Dublin,Dublin City,Republic of Ireland,Public Sculpture
Bridge Street Studios,https://www.bridgestreetstudios.com/,353429000000,-6.402879,54.0094618,Louth,Dundalk,Ireland,"Craft,Shopping,Art Gallery"
Isaac Butt,,,-6.253322,53.34998,Dublin,Dublin City,Republic of Ireland,Public Sculpture
Stephenstown Pond Nature Park & The Dairy Maid Coffee Shop,http://stephenstownpond.com,353429000000,-6.459102,53.963054,Louth,Knockbridge,Ireland,"Bird Watching,Nature and Wildlife,Fishing,Angling,Learning,Photography,Walking,Forest Park,Park and Forest Walk,Museums and Attraction,Natural Landscape,Venue,Music,Cafe,Food and Drink,Tour"
Garnish Beach,,,-10.132944,51.6148523,Cork,,Ireland,Beach
Crew Brewing Company,https://www.crewbrewing.ie,,-8.6236997,52.6619598,Limerick,,Ireland,"Food and Drink,Learning,Museums and Attraction,Local Produce,Restaurant,Pubs and Bar"
The Design Tower,http://thedesigntower.com/,,-6.239626,53.341925,Dublin,,Republic of Ireland,"Craft,Shopping,Shopping Centres and Department Store,Art Gallery,Food Shops"
Kennedy's All-Weather Pet Farm & Playgrounds,http://kennedyspetfarm.com/,353872000000,-9.391947854,52.02963434,Kerry,Headford,Republic of Ireland,Visitor Farm
Kennedy's All-Weather Pet Farm & Playgrounds,http://kennedyspetfarm.com/,353872000000,-9.391947854,52.02963434,Kerry,Headford,Republic of Ireland,Visitor Farm
Kings Inns,http://www.kingsinns.ie,+353(0)18744840,-6.271646073,53.35287142,Dublin,,Republic of Ireland,"Covid Safety Charter,Photography,Learning,Walking,Historic Houses and Castle,Food Shops,Shopping"
Woodland Cottage Garden,https://www.facebook.com/woodlandcottagegarden,353579000000,-7.900772,53.107598,Offaly,Birr,Ireland,"Gardening,Nature and Wildlife,Gardens,Garden,Cafe,Food and Drink"
Glenavon Japanese Garden,https://www.facebook.com/glenavonjapanesegarden,353539000000,-6.2335295,52.6139462,Wexford,Gorey,Ireland,"Gardening,Nature and Wildlife,Gardens,Garden"
Sandy Feet Farm,http:// sandyfeetfarm.ie,353862000000,-9.922906,52.2308225,Kerry,Camp,Ireland,"Agriculture,Nature and Wildlife,Visitor Farm,Cafe,Food and Drink,Activity Operator"
The North Mayo Sculpture Trail,,+353(0)9845107,-9.163177101,54.12908908,Mayo,Ballina,Republic of Ireland,Public Sculpture
Ballaghmore Castle,"http://www.megalithicireland.com/Ballaghmore%20Castle,%20Laois.html",35350521453,-7.707129,52.9597586,Laois,,Ireland,"Photography,Learning,Historic Houses and Castle,Castle"
Kilmacduagh Cathedral Churches And Round Tower,http://monastic.ie/history/kilmacduagh,,-8.885541,53.055518,Galway,,Republic of Ireland,"Church Abbey,Monastery,Churches,Abbeys and Monastery"
Leac an Scail  - Kilmogue dolmen - Harristown Dolmen,http://www.megalithicireland.com/Kilmogue%20Dolmen.htm,,-7.261723,52.402923,Kilkenny,Knocktopher,Republic of Ireland,"Church Abbey,Monastery,Churches,Abbeys and Monastery"
Islands View,,,-9.9892062,53.606991,Galway,Renvyle,Ireland,Discovery Point
Inishbeg,,,-9.343121,51.527279,Cork,Baltimore,Ireland,Discovery Point
Festina Lente Gardens,https://festinalente.ie/,35312720704,-6.1304989,53.2107869,Wicklow,,Ireland,"Gardens,Garden,Cafe,Food and Drink"
Áras an Mhuilinn Regional Comhaltas Centre,http://www.comhaltas.ie,353449000000,-7.339977299,53.52376951,Westmeath,Mullingar,Ireland,"Learning,Traditionally Irish,Literary Ireland,Cafe,Food and Drink"
Jungle City,,,-8.89378084,51.62005311,Cork,Clonakilty,Ireland,Public Sculpture
Kenmare Heritage Centre,,353647000000,-9.584642,51.880807,Kerry,Kenmare,Republic of Ireland,Museums and Attraction
St. Mullins Ecclesiastical Village,,353879000000,-6.929015936,52.49129964,Carlow,,Republic of Ireland,"Church Abbey,Monastery,Churches,Abbeys and Monastery"
Ardmore Round Tower And Cathedral,http://roundtowers.org/ardmore/index1.htm,,-7.72603896,51.94868846,Waterford,Ardmore,Republic of Ireland,"Church Abbey,Monastery,Churches,Abbeys and Monastery"
Conna Castle,https://www.castles.nl/conna-castle,353862000000,-8.1016545,52.0945205,Cork,Conna,Ireland,"Castle,Historic Houses and Castle"
Tullaherin Round tower,,353568000000,-7.1298504,52.5793562,Kilkenny,,Ireland,"Church Abbey,Monastery,Churches,Abbeys and Monastery"
Country Cottage Stables,https://countrycottagestables.ie/,353862000000,-6.183672,53.163411,Wicklow,Enniskerry,Ireland,"Gardening,Nature and Wildlife,Horse Riding,Equestrian,Activity Operator,Gardens,Garden,Shopping,Cafe,Food and Drink,Food Shops"
St. Peter's Tin Church Laragh,http://facebook.com/laraghheritagemonaghan,353879000000,-6.737022247,54.12001835,Monaghan,Castleblayney,Ireland,"Photography,Learning,Historic Houses and Castle,Church Abbey,Monastery,Churches,Abbeys and Monastery"
Timahoe Round Tower,https://www.facebook.com/laois.heritage.forum,353579000000,-7.201265,52.9609641,Laois,Timahoe,Ireland,"Photography,Learning,Historic Houses and Castle,Church Abbey,Monastery,Churches,Abbeys and Monastery,Ruins"
Glanageenty Loop,http://www.irishtrails.ie/Trail/Glanageenty-loop-/112/,,-9.458949696,52.23297151,Kerry,,Ireland,"Walking,Forest Park,Park and Forest Walk,Natural Landscape"
Swiss Cottage,https://heritageireland.ie/places-to-visit/swiss-cottage/,353527000000,-7.9235163,52.3573101,Tipperary,Cahir,Ireland,"Photography,Learning,Walking,Historic Houses and Castle,Tour"
Glenstal Abbey,https://www.glenstal.com/abbey,35361621000,-8.3883081,52.6616783,Limerick,Murroe,Ireland,"Photography,Learning,Walking,Historic Houses and Castle,Castle,Church Abbey,Monastery,Churches,Abbeys and Monastery,Gardens,Garden,Food Shops,Shopping"
Ballymote Castle,http://www.megalithicireland.com/Ballymote%20Castle.html,,-8.5197245,54.087625,Sligo,Ballymote,Ireland,"Castle,Historic Houses and Castle"
Broadford Ashford Walking Trails - Killagholehane Way,http://walkbroadfordashford.com/trail/killagholehane-way/,,-8.972707,52.346003,Limerick,Broadford,Ireland,"Walking,Ruins,Historic Houses and Castle"
Carrowkeel Megalithic Site,http://www.megalithicireland.com/Carrowkeel%20home.htm,,-8.387667137,54.07453456,Sligo,Carrowkeel,Republic of Ireland,"Church Abbey,Monastery,Churches,Abbeys and Monastery"
Inishowen Head,,,-6.9287627,55.2259382,Donegal,,Ireland,Discovery Point
Ardfert Cathedral,https://heritageireland.ie/visit/places-to-visit/ardfert-cathedral/,353667000000,-9.7816297,52.3285243,Kerry,Ardfert,Ireland,"Covid Safety Charter,Historic Houses and Castle,Church Abbey,Monastery,Churches,Abbeys and Monastery,Ruins"
Augustinian Abbey Lorrha,"http://www.megalithicireland.com/Lorrha%20Augustinian%20Abbey,%20Tipperary.html",,-8.121999159,53.08941392,Tipperary,Lorrha,Republic of Ireland,"Church Abbey,Monastery,Churches,Abbeys and Monastery"
Cé Bhun an Bhaile (Bunavalla Pier),,,-10.151561,51.765694,Kerry,Caherdaniel,Ireland,Embarkation Point
Magdalene Tower,http://www.drogheda.ie,+353(0)419837070,-6.351512,53.718285,Louth,Drogheda,Republic of Ireland,"Photography,Learning,Walking,Historic Houses and Castle,Church Abbey,Monastery,Churches,Abbeys and Monastery,Ruins"
Punchestown Standing Stone,http://www.kildare.ie/kildareheritage,35345521240,-6.6289596,53.1911515,Kildare,,Ireland,"Photography,Learning,Public Sculpture"
Dublin Decoded Walking Tours,http://dublindecoded.com/,+353(0)874171460,-6.2712375,53.3327142,Dublin,,Ireland,"Walking,Activity Operator,Historic Houses and Castle,Tour"
Carlingford Lough Greenway,https://www.visitlouth.ie/explore-and-do/do/tours-and-trails-louth/carlingford-lough-greenway.html,353429000000,-6.257084506,54.09031345,Louth,Carlingford,Ireland,"Walking,Natural Landscape"
Agharinagh Inspirational Gardens,http://www.griffinsgardencentre.ie,353217000000,-8.724551,51.912194,Cork,Dripsey,Ireland,"Gardens,Garden"
Geological Museum,https://trinitygeologicalmuseum.com/,+353(0)18961477,-6.261219,53.344479,Dublin,Dublin City Centre,Republic of Ireland,"Learning,Historic Houses and Castle,Museums and Attraction"
Books@One,https://www.booksatone.ie/,3539866885,-9.8098762,53.7626494,Mayo,Louisburgh,Ireland,"Shopping,Shopping Centres and Department Store,Literary Ireland,Cafe,Food and Drink,Food Shops"
The Dower House Gardens,http://www.gardensofireland.org/directory/60/,35340440168,-6.0854301,53.0048178,Wicklow,,Ireland,"Gardens,Garden"
Timoleague Abbey,,,-8.7633213,51.643558,Cork,Timoleague,Ireland,Discovery Point
County Museum Dundalk,https://www.louthcoco.ie/en/contact/location_maps/dundalk/dundalk_museum.html,353429000000,-6.3971254,54.0046228,Louth,Dundalk,Ireland,"Historic Houses and Castle,Museums and Attraction,Venue,Music,Tour"
The People's Museum of Limerick,http://peoplesmuseum.ie,353871000000,-8.6299147,52.6582447,Limerick,Limerick City,Republic of Ireland,"Covid Safety Charter,Museums and Attraction"
Carrigogunnell Castle,http://www.megalithicireland.com/Carrigogunnell%20Castle.html,35361317522,-8.741821,52.646438,Limerick,Limerick City,Republic of Ireland,"Castle,Historic Houses and Castle"
Ballyhoura Mountain Bike Trail Network,http://www.visitballyhoura.com,+353(0)6391300,-8.469557294,52.35999943,Limerick,,Republic of Ireland,"Cycling,Forest Park,Park and Forest Walk,Walking,Natural Landscape,Venue,Sports Venues,Cafe,Food and Drink,Bike Rental,Tour"
Glebe Gardens,http://www.glebegardens.com,3532820579,-9.361088,51.484541,Cork,Baltimore,Ireland,"Walking,Gardens,Garden"
Port na Feadóige (Gorteen Bay),,,-9.9544582,53.380887,Galway,Roundstone,Ireland,Discovery Point
Áras an Uachtaráin,http://www.president.ie/en,+353(0)16770095,-6.311431,53.361618,Dublin,Phoenix Park,Republic of Ireland,"Historic Houses and Castle,Gardens,Garden,Tour"
Drumcliffe Round Tower And High Cross,http://www.megalithicireland.com/High%20Cross%20Drumcliffe.htm,,-8.4959115,54.3262835,Sligo,,Ireland,"Church Abbey,Monastery,Churches,Abbeys and Monastery"
The Steam Museum and Lodge Park Walled Garden,http://www.steam-museum.com,35316288412,-6.5991458,53.311618,Kildare,Straffan,Ireland,"Photography,Learning,Church Abbey,Monastery,Churches,Abbeys and Monastery,Gardens,Garden,Museums and Attraction,Shopping"
Burren Experience Guided Walks,http://www.mullaghmore-burren.com,353868000000,-9.062701254,52.94492049,Clare,Corofin,Ireland,"Learning,Walking,Activity Operator,National Park,National and Forest Park,Tour"
Kilree High Cross,http://www.megalithicireland.com/High%20Cross%20Kilree.htm,,-7.269554,52.5181956,Kilkenny,,Ireland,"Church Abbey,Monastery,Churches,Abbeys and Monastery"
Dunmoe Castle,http://www.navanhistory.ie/index.php?page=dunmoe-castle-2,353875000000,-6.6373308,53.6739901,Meath,,Ireland,"Church Abbey,Monastery,Churches,Abbeys and Monastery"
Sliabh Beagh Adventures,https://sliabhbeaghadventures.ie,,-7.1294301,54.3056891,Monaghan,Knockatallon,Republic of Ireland,"Climbing,Activity Operator,Cycling,Walking,Natural Landscape"
Cé Ailt an Chorráin (Burtonport Harbour),,,-8.4413892,54.983318,Donegal,Burtonport,Ireland,Embarkation Point
Tarbert House,http://www.kerrytourism.tarbert.ie/things-to-do/visit-tarbert-house,3536836198,-9.3689933,52.5796639,Kerry,Tarbert,Ireland,Historic Houses and Castle
Mick The Miller Monument,http://www.mickthemiller.com/,353852000000,-7.449883629,53.2139092,Offaly,Killeigh,Ireland,Public Sculpture
Saint Brigid’s Shrine and Well Faughart,"http://www.megalithicireland.com/St%20Brigid's%20Shrine,%20Faughart.html",353429000000,-6.3973283,54.0529048,Louth,,Ireland,"Photography,Learning,Walking,Church Abbey,Monastery,Churches,Abbeys and Monastery,Ruins,Historic Houses and Castle"
Cork Courthouse,http://www.courts.ie/offices.nsf/bae2125da4ef043080256e45004d04f3/0a9a7f907f3e33fe80256e450050b94a?OpenDocument,353215000000,-8.4788107,51.89781,Cork,,Ireland,"Castle,Historic Houses and Castle"
Ionad an Bhlascaoid Mhóir,,,-10.4618,52.133076,Kerry,Dingle Peninsula,Ireland,Discovery Point
Lisfanon Beach,,,-7.4785137,55.098802,Donegal,Buncrana,Ireland,Discovery Point
Ballyhack Castle,http://www.heritageireland.ie/en/south-east/ballyhackcastle,35351389468,-6.9673172,52.2459479,Wexford,Ballyhack,Ireland,"Historic Houses and Castle,Castle,Ruins,Tour"
Master McGrath Monument,https://www.buildingsofireland.ie/buildings-search/building/22903003/master-mcgrath-monument-ballymacmague-south-county-waterford,3535841741,-7.621652,52.088003,Waterford,Dungarvan,Republic of Ireland,"Historic Houses and Castle,Public Sculpture"
Lehinch Beach,,,-9.3479973,52.933547,Clare,,Ireland,Discovery Point
I am of Ireland,https://www.iamofireland.ie/,353878000000,-7.836359,51.993495,Waterford,Clashmore,Ireland,"Craft,Shopping,Shopping Centres and Department Store,Art Gallery,Food Shops"
Desmond Castle and  Wine Museum,https://heritageireland.ie/visit/places-to-visit/desmond-castle-kinsale/,353215000000,-8.5246615,51.7072605,Cork,Kinsale,Ireland,"Castle,Historic Houses and Castle,Museums and Attraction"
Johnstown Garden Centre,http://www.johnstowngardencentre.ie,35345879138,-6.623039,53.238098,Kildare,Johnstown,Ireland,"Gardening,Nature and Wildlife,Gardens,Garden,Cafe,Food and Drink"
Croke Park Stadium,https://crokepark.ie/,35315821593,-6.252428,53.361245,Dublin,Dublin City,Republic of Ireland,"Restaurant,Gaa,Stadium,Sports Venue,Venue,Music,Sports Venues,Cafe,Food and Drink,Fast Food,Activity Operator,Food Shops,Shopping,Tour"
Highlanes Municipal Art Gallery,http://www.highlanes.ie,353420000000,-6.348471,53.7154352,Louth,Drogheda,Ireland,"Covid Safety Charter,Craft,Shopping,Learning,Historic Houses and Castle,Art Gallery,Church Abbey,Monastery,Churches,Abbeys and Monastery,Cafe,Food and Drink,Local Produce,Restaurant,Tour"
Wolfe Tone,http://www.talkingstatuesdublin.ie/statues/wolfe-tone/,,-6.255943265,53.33839461,Dublin,,Ireland,"Public Sculpture,Talking Statue"
Poet's Cottage,http://www.laois.ie/departments/heritage/laois-heritage-trail/poets-cottage,,-7.5924095,53.0048261,Laois,,Ireland,Museums and Attraction
Cappoquin House,https://www.cappoquinhouseandgardens.com,353877000000,-7.8503399,52.1494507,Waterford,Cappoquin,Ireland,"Walking,Historic Houses and Castle,Gardens,Garden,Tour"
Ardmore Beach ,https://www.blueflag.global/show-site?siteId=17012,,-7.722236,51.952063,Waterford,Ardmore,Ireland,"Swimming,Swimming Pools and Water Park,Venue,Walking,Beach,Natural Landscape"
Kinsale Museum,https://www.kinsale.ie/2010/06/11/regional-museum/,353215000000,-8.5242949,51.7062717,Cork,Kinsale,Ireland,"Learning,Historic Houses and Castle,Museums and Attraction"
Dhu Varren Garden,http://www.dhuvarrengarden.com,353876000000,-9.696926,52.1342514,Kerry,Milltown,Ireland,"Gardening,Nature and Wildlife,Gardens,Garden"
Wicklow Family History Centre,http://wicklow.rootsireland.ie/,35340420126,-6.047759,52.984197,Wicklow,,Ireland,"Tracing Your Ancestors,Museums and Attraction"
Pearse Museum and St. Enda's Park,http://pearsemuseum.ie,+353(0)14934208,-6.281587822,53.28293774,Dublin,Rathfarnham,Republic of Ireland,"Covid Safety Charter,Walking,Historic Houses and Castle,Gardens,Garden,Museums and Attraction,Public Park,Nature and Wildlife,Cafe,Food and Drink,Tour"
Red Mountain Open Farm,https://redmountainopenfarm.ie/,353420000000,-6.4615279,53.675023,Meath,,Ireland,"Agriculture,Nature and Wildlife,Horse Riding,Equestrian,Learning,Photography,Walking,Visitor Farm,Cafe,Food and Drink,Tour"
Ardgillan Demesne,http://www.facebook.com/ardgillancastle,+353(0)18492212,-6.159029692,53.58716314,Dublin,Balbriggan,Republic of Ireland,"Learning,Walking,Gardens,Garden,Historic Houses and Castle,Public Park,Nature and Wildlife,Cafe,Food and Drink,Food Shops,Shopping,Tour"
Kilmakilloge,,,-9.8209137,51.783048,Kerry,Kenmare,Ireland,Discovery Point
Clash Gaelic Games,http://www.clash.ie,353876000000,-6.141688518,53.43744165,Dublin,Portmarnock,Ireland,"Gaa,Learning,Activity Operator"
Augustinian Abbey Adare,http://www.ireland.anglican.org,35361396227,-8.784585,52.567928,Limerick,Adare,Republic of Ireland,"Historic Houses and Castle,Church Abbey,Monastery,Churches,Abbeys and Monastery"
Garter Lane Art Gallery,http://www.garterlane.ie,+353(0)51855038,-7.116447,52.262574,Waterford,Waterford City,Republic of Ireland,"Learning,Movies,Cinema,Venue,Activity Operator,Art Gallery,Music"
Firkin Crane Dance Centre,http://www.firkincrane.ie,353215000000,-8.4763208,51.9026987,Cork,,Ireland,"Learning,Historic Houses and Castle"
St. Columb's Gardens,http://www.donegalgardentrail.com/site/?page_id=2320,353749000000,-7.9031983,55.0044336,Donegal,,Ireland,"Gardening,Nature and Wildlife,Gardens,Garden"
Youghal Heritage Centre,https://youghal.ie/organisation/youghal-heritage-centre/,3532420170,-7.845717,51.953087,Cork,Youghal,Republic of Ireland,"Museums and Attraction,Food Shops,Shopping"
Kilmichael Strand,,,-6.141523234,52.73541348,Wexford,Castletown,Republic of Ireland,Beach
Mondello Park Racing Circuit,https://www.mondellopark.ie,35345860200,-6.7461111,53.2575,Kildare,Donore,Ireland,"Covid Safety Charter,Activity Operator,Adventure Park,Museums and Attraction"
Old Head,,,-9.7710353,53.776562,Mayo,Louisburgh,Ireland,"Kayaking,Activity Operator,Kitesurfing,Windsurfing,Surfing,Swimming,Swimming Pools and Water Park,Venue,Walking,Beach,Discovery Point"
Hunting Brook Garden,http://www.huntingbrook.com,353873000000,-6.4874987,53.2200803,Wicklow,,Ireland,"Gardens,Garden"
Brittas Bay North Beach ,https://www.blueflag.global/show-site?siteId=6610,35340469117,-6.0638074,52.8730947,Wicklow,,Ireland,"Sailing,Activity Operator,Swimming,Swimming Pools and Water Park,Venue,Walking,Beach"
Ballysaggartmore Towers,https://www.theirishplace.com/heritage/history-ballysaggartmore-towers,,-7.9631741,52.1472156,Waterford,,Ireland,"Walking,Historic Houses and Castle,Castle,Ruins"
Berkeley Forest House,http://berkeleyforesthouse.com,35351421361,-6.873299053,52.41402524,Wexford,New Ross,Republic of Ireland,"Castle,Historic Houses and Castle"
Ballyhugh Art and Culture Centre Painting,http://homepage.eircom.net/~ballyhugh,353500000000,-7.583964736,54.11607379,Cavan,Ballyconnell,Republic of Ireland,"Craft,Shopping,Learning,Art Gallery,Activity Operator"
Glanworth Castle And Dominican Friary,http://irishantiquities.bravehost.com/cork/castlelyons/castlelyons.html,,-8.354437,52.1882374,Cork,Glanworth,Ireland,"Church Abbey,Monastery,Churches,Abbeys and Monastery"
Baltimore Harbour,,,-9.3745726,51.482555,Cork,Baltimore,Ireland,Embarkation Point
O'Donovan's Castle,https://www.castles.nl/castle-donovan,3532821489,-9.2827815,51.692145,Cork,,Ireland,"Castle,Historic Houses and Castle"
Liberty Tree,,+353(0)599130411,-6.929228,52.835025,Carlow,,Republic of Ireland,Public Sculpture
Blue Egg Gallery,http://www.blueegggallery.ie/,353539000000,-6.4646946,52.3393084,Wexford,,Ireland,"Craft,Shopping,Learning,Shopping Centres and Department Store,Art Gallery,Historic Houses and Castle,Activity Operator,Food Shops"
Carrigaphooca Castle,https://www.castles.nl/carrigaphooca-castle,3532620544,-9.028399,51.908549,Cork,Macroom,Republic of Ireland,"Castle,Historic Houses and Castle"
Mallow Castle,https://www.castles.nl/mallow-castle,353859000000,-8.6390052,52.1338549,Cork,Mallow,Ireland,"Castle,Historic Houses and Castle"
National Botanic Gardens,http://botanicgardens.ie/,+353(0)18040300,-6.27185819,53.37265435,Dublin,Glasnevin,Republic of Ireland,"Learning,Photography,Walking,Gardens,Garden,Public Park,Nature and Wildlife,Cafe,Food and Drink,Food Shops,Shopping,Tour"
Saint Cronan's 10th Century Church Tuamgraney,http://www.discoverloughderg.ie/tuamgraney-church,35361921351,-8.5393666,52.8966945,Clare,Tuamgraney,Ireland,"Church Abbey,Monastery,Churches,Abbeys and Monastery"
Dublin Garden Trail,http://www.dublingardens.com, +353(0)12819422,-6.189413,53.298931,Dublin,Blackrock,Republic of Ireland,"Gardening,Nature and Wildlife,Gardens,Garden,Tour"
Croppies Grave,http://www.igp-web.com/Carlow/croppies_graves.htm,,-6.9391607,52.8389539,Carlow,,Ireland,Public Sculpture
Limerick City Museum,https://www.limerick.ie/limerick-museum,35361557740,-8.6287673,52.6639172,Limerick,,Ireland,"Learning,Museums and Attraction,Tour"
"Old St Mary's Church, Clonmel",https://www.stmarysparishclonmel.ie/,3530530000000,-7.7053964,52.3543347,Tipperary,Oldbridge,Ireland,"Church Abbey,Monastery,Churches,Abbeys and Monastery"
Ballynacarriga Castle,http://www.castles.ancientireland.org/ballinacarriga/index.htm,353239000000,-9.031648,51.705571,Cork,Bandon,Ireland,"Castle,Historic Houses and Castle"
Booley Bay Beach,,,-6.904408,52.2010499,Wexford,New Ross,Ireland,"Swimming,Swimming Pools and Water Park,Venue,Beach"
Olivier Cornet Gallery,http://www.facebook.com/oliviercornet.gallery,+353(0)872887261,-6.262482547,53.35528615,Dublin,,Ireland,"Craft,Shopping,Art Gallery,Food Shops"
National College Of Art And Design,http://www.ncad.ie,+353(0)16364200,-6.253916569,53.3409606,Dublin,Dublin City Centre,Republic of Ireland,"Craft,Shopping,Learning,Photography,Activity Operator,Art Gallery,Cafe,Food and Drink"
Killahoey Beach ,https://www.blueflag.global/show-site?siteId=6585,,-7.9553654,55.1885934,Donegal,,Ireland,Beach
Tullamore D.E.W. Visitor Centre,https://www.tullamoredew.com,353579000000,-7.4929774,53.2777494,Offaly,Tullamore,Ireland,"Covid Safety Charter,Food and Drink,Restaurant,Museums and Attraction,Tour"
Oscar Wilde,http://www.talkingstatuesdublin.ie/statues/oscar/,,-6.250583758,53.34083824,Dublin,,Ireland,"Public Sculpture,Talking Statue,Literary Ireland"
Templetown  Beach ,https://www.blueflag.global/show-site?siteId=6597,353429000000,-6.1534395,53.9795749,Louth,,Ireland,"Kitesurfing,Windsurfing,Activity Operator,Photography,Learning,Surfing,Swimming,Swimming Pools and Water Park,Venue,Walking,Beach,Sports Venues"
Limerick Printmakers,http://www.limerickprintmakers.com,35361311806,-8.6191794,52.6631362,Limerick,Limerick City,Ireland,"Craft,Shopping,Learning,Art Gallery"
Swords Round Tower & Belfry,http://swords.dublin.anglican.org,+353(0)18956747,-6.2244591,53.4576831,Dublin,Swords,Ireland,"Historic Houses and Castle,Church Abbey,Monastery,Churches,Abbeys and Monastery"
Donaghpatrick Church,http://www.discoverboynevalley.ie/boyne-valley-drive/heritage-sites/donaghpatrick-church,,-6.7595492,53.6965617,Meath,,Ireland,"Church Abbey,Monastery,Churches,Abbeys and Monastery"
Bainnlann Chul na nGabhar Art Gallery,https://www.facebook.com/bainnlann/,3535841933,-7.6247721,52.0897542,Waterford,Dungarvan,Ireland,"Craft,Shopping,Art Gallery"
Knappogue Medieval Castle Banquet,http://www.knappoguecastle.ie/medieval-banquet/?_ga=2.37412192.1525066531.1579781977-34006099.1579781977,35366711222,-8.8319382,52.7939498,Clare,Quin,Ireland,"Food and Drink,Restaurant,Activity Operator,Castle,Historic Houses and Castle,Traditionally Irish"
Blackrock Beach,http://facebook.com/visitblackrock/,+353(0)872077193,-6.366831,53.960735,Louth,Blackrock,Ireland,"Kayaking,Activity Operator,Kitesurfing,Windsurfing,Swimming,Swimming Pools and Water Park,Venue,Walking,Beach,Sports Venues"
Ballynatray Gardens,http://www.ballynatray.com,3532497463,-7.887014,51.99547,Cork,Youghal,Ireland,"Walking,Gardens,Garden"
Old Mellifont Abbey,https://www.heritageireland.ie/en/midlands-eastcoast/oldmellifontabbey,353420000000,-6.465959509,53.74266351,Louth,Tullyallen,Republic of Ireland,"Photography,Learning,Walking,Historic Houses and Castle,Church Abbey,Monastery,Churches,Abbeys and Monastery,Ruins,Tour"
Colclough Walled  Garden,http://www.colcloughwalledgarden.com/,353833000000,-6.8425278,52.234339,Wexford,New Ross,Ireland,"Covid Safety Charter,Walking,Gardens,Garden,Cafe,Food and Drink"
Celtic Plantarum Dundrum,https://www.garden.ie/gardenstosee/celtic-plantarum-dundrum/,3536271303,-8.04394294,52.5576255,Tipperary,Dundrum,Republic of Ireland,"Gardening,Nature and Wildlife,Gardens,Garden"
Loughcrew Historic Gardens,https://loughcrew.com/,353499000000,-7.143688,53.734141,Meath,Oldcastle,Ireland,"Photography,Learning,Walking,Gardens,Garden,Venue,Music,Cafe,Food and Drink"
Kilteel Castle,http://www.megalithicireland.com/Kilteel%20Castle.html,35345521240,-6.5274876,53.2326787,Kildare,,Ireland,"Castle,Historic Houses and Castle,Ruins"
Fitzmaurice Castle,https://www.ballybunion.ie/things-to-do/attractions/ballybunion-castle.html,353667000000,-9.6774631,52.5120069,Kerry,,Ireland,"Castle,Historic Houses and Castle"
Isaac Butt Heritage Centre,https://www.facebook.com/isaacbuttheritagecommittee,353749000000,-7.9324749,54.8384012,Donegal,,Ireland,Museums and Attraction
St. Patrick’s Gateway Centre,https://www.facebook.com/stpatricksgatewaycentreltd,35351843589,-7.1141788,52.260277,Waterford,,Ireland,"Historic Houses and Castle,Church Abbey,Monastery,Churches,Abbeys and Monastery,Venue,Music"
Coolmelagh - Prospect Loop,http://www.irishtrails.ie/Trail/Coolmelagh---Prospect-Loop/427/,,-6.580390652,52.68619666,Wexford,Bunclody,Ireland,"Walking,Forest Park,Park and Forest Walk,Natural Landscape"
Cathedral of the Most Holy Trinity,http://www.waterford-cathedral.com,35351874757,-7.1111721,52.2615066,Waterford,,Ireland,"Historic Houses and Castle,Church Abbey,Monastery,Churches,Abbeys and Monastery"
Galley Head,,,-8.951755,51.534998,Cork,Rosscarbery,Ireland,Discovery Point
Molly Loop,http://www.irishtrails.ie/trails.aspx?c=Louth,,-6.187984268,54.04327358,Louth,Grange,Ireland,"Walking,Natural Landscape"
Holy Trinity Church,https://www.buildingsofireland.ie/buildings-search/building/22110009/holy-trinity-church-catholic-main-street-fethard-fethard-tipperary-south,353863000000,-7.6949615,52.4656284,Tipperary,Fethard,Ireland,"Photography,Learning,Historic Houses and Castle,Church Abbey,Monastery,Churches,Abbeys and Monastery"
Sathya Sai Sanctuary For Nature,http://www.donkeys.ie,+353(0)861031932,-8.406741,54.067111,Sligo,Castlebaldwin,Republic of Ireland,"Visitor Farm,Activity Operator"
Golden Grove Forest,https://www.coillte.ie/site/golden-grove/,+353(0)61337322,-7.800073568,52.96123502,Tipperary,Roscrea,Republic of Ireland,"Walking,Forest Park,Park and Forest Walk,Natural Landscape"
St Aidan's Cathedral,http://www.staidanscathedral.ie,353539000000,-6.5708702,52.5026356,Wexford,Enniscorthy,Ireland,"Church Abbey,Monastery,Churches,Abbeys and Monastery"
Dromana Gate,https://dromanahouse.com/history,3532496144,-7.863762522,52.1093223,Waterford,Cappoquin,Republic of Ireland,Historic Houses and Castle
Zoological Museum,http://www.tcd.ie/Zoology/museum/,+353(0)18961366,-6.251858,53.343181,Dublin,,Ireland,"Learning,Museums and Attraction,Food Shops,Shopping"
Titanic Experience Cobh,http://www.titanicexperiencecobh.ie,353215000000,-8.2947994,51.8499294,Cork,Kilgarvan,Ireland,"Covid Safety Charter,Historic Houses and Castle,Museums and Attraction,Food Shops,Shopping,Tour"
Listowel River Walk,http://www.irishtrails.ie/Trail/Listowel-Village-Walks---River-Walk/609/,,-9.483925274,52.44712012,Kerry,Listowel,Republic of Ireland,"Walking,Castle,Historic Houses and Castle,Public Park,Nature and Wildlife,Public Sculpture"
The Warren Gallery,http://www.warren-gallery.com,3532836146,-9.1748961,51.528295,Cork,,Ireland,"Craft,Shopping,Art Gallery"
Jam Art Factory,https://jamartprints.com,35316165671,-6.2721,53.34117,Dublin,Dublin,Ireland,"Craft,Shopping,Shopping Centres and Department Store,Art Gallery,Food Shops"
Clonea Beach ,https://www.blueflag.global/show-site?siteId=6629,,-7.542845687,52.09615202,Waterford,Clonea,Republic of Ireland,"Swimming,Swimming Pools and Water Park,Venue,Walking,Beach,Natural Landscape"
Shrule Pet Farm,https://www.facebook.com/shrule.petfarm,353878000000,-6.245731,52.555725,Wexford,Shrule,Republic of Ireland,"Covid Safety Charter,Visitor Farm"
Baltinglass Abbey,http://visitwicklow.ie/attractions/baltinglass-abbey,,-6.7102325,52.9439747,Wicklow,Baltinglass,Ireland,"Historic Houses and Castle,Church Abbey,Monastery,Churches,Abbeys and Monastery,Ruins"
Michael Collins Birthplace,http://www.michaelcollinscentre.com/,353239000000,-8.9805027,51.6165156,Cork,,Ireland,"Castle,Historic Houses and Castle,Ruins"
Easkey Pier,,,-8.957322847,54.29391877,Sligo,Easkey,Ireland,Discovery Point
Ardamine Beach,,,-6.226382459,52.64386973,Wexford,Courtown,Republic of Ireland,Beach
Kilvahan Horse Drawn Caravans and Adventure Farm,http://www.horsedrawncaravans.com,353579000000,-7.6252845,52.9959756,Laois,Coolrain,Ireland,"Horse Riding,Equestrian,Activity Operator,Visitor Farm"
The Round Tower Clondalkin,http://theroundtower.ie,+353(0)15554648,-6.39537391,53.32208417,Dublin,Clondalkin,Ireland,"Covid Safety Charter,Learning,Church Abbey,Monastery,Churches,Abbeys and Monastery,Museums and Attraction,Cafe,Food and Drink,Vegan,Restaurant,Vegetarian,Food Shops,Shopping,Tour"
Oriel Gallery,http://www.theoriel.com,+353(0)16763410,-6.251421,53.341239,Dublin,Dublin City Centre,Republic of Ireland,"Craft,Shopping,Art Gallery,Food Shops"
Pearse Street Library,http://www.dublincity.ie/main-menu-services-recreation-culture-dublin-city-public-libraries-and-archive-locations-hours-19,+353(0)16744888,-6.245275,53.343092,Dublin,Dublin City,Republic of Ireland,"Learning,Tracing Your Ancestors,Museums and Attraction,Literary Ireland,Cafe,Food and Drink"
Roney Point Beach,,,-6.211656302,52.59954632,Wexford,Courtown,Republic of Ireland,Beach
Timoleague Franciscan Friary,http://www.timoleague.ie,,-8.765224,51.644802,Cork,Timoleague,Republic of Ireland,"Historic Houses and Castle,Church Abbey,Monastery,Churches,Abbeys and Monastery"
Urban Brewing,http://urbanbrewing.ie,+353(0)15685989,-6.248247449,53.34908681,Dublin,,Ireland,"Covid Safety Charter,Restaurant,Food and Drink,Museums and Attraction,Historic Houses and Castle,Local Produce,Pubs and Bar,Activity Operator,Food Shops,Shopping,Tour"
Barnageara Beach,,+353(0)18400077,-6.148359036,53.58666584,Dublin,,Republic of Ireland,Beach
Dwyer McAllister Cottage,http://www.heritageireland.ie/en/midlands-eastcoast/dwyermcallistercottage,35340445325,-6.5648108,52.9619269,Wicklow,Donard,Ireland,"Historic Houses and Castle,Museums and Attraction"
Inishbofin Island (Inis Bó Finne),http://www.donegalislands.com,+353(0)749135635,-8.170623921,55.1678058,Donegal,,Ireland,"Bird Watching,Nature and Wildlife,Kayaking,Activity Operator,Kitesurfing,Windsurfing,Walking,Beach,Island,Offshore Island,Natural Landscape"
Rosses Point Coastal Walk,https://www.discoverireland.ie/sligo,,-8.557107709,54.30834572,Sligo,Rosses Point,Republic of Ireland,"Walking,Natural Landscape,Public Sculpture"
Barley Cove,,,-9.76928,51.468821,Cork,Crookhaven,Ireland,Discovery Point
Littor Beach,,,-9.5787059,52.5737055,Kerry,,Ireland,Beach
Merrion Square Open Air Art Gallery,https://www.merrionart.com,,-6.2491694,53.3396402,Dublin,,Ireland,"Craft,Shopping,Shopping Centres and Department Store,Art Gallery,Food Shops"
Tipperary Studies at Tipperary Libraries,http://www.tipperarylibraries.ie,+353(0)50429278,-7.809615,52.678962,Tipperary,Thurles,Republic of Ireland,"Learning,Tracing Your Ancestors,Museums and Attraction,Literary Ireland"
Coppinger's Court,"http://www.megalithicireland.com/Coppinger's%20Court,%20Cork.html",3532821489,-9.0668602,51.5716479,Cork,,Ireland,"Castle,Historic Houses and Castle"
Abbeyshrule Monastery,http://www.facebook.com/AbbeyshruleAbbey,353433000000,-7.658347079,53.57969143,Longford,Abbeyshrule,Republic of Ireland,"Photography,Learning,Historic Houses and Castle,Church Abbey,Monastery,Churches,Abbeys and Monastery,Ruins"
Woodville House Gardens,http://woodvillegardens.ie,35351422957,-6.9309706,52.4171808,Wexford,New Ross,Ireland,"Walking,Gardens,Garden,Tour"
City Assembly House,http://www.igs.ie/conservation/project/city-assembly-house-a-history,+353(0)16798675,-6.2624532,53.34199229,Dublin,,Ireland,"Craft,Shopping,Historic Houses and Castle,Art Gallery,Museums and Attraction,Food Shops"
Brittas Bay South Beach ,https://www.blueflag.global/show-site?siteId=6611,,-6.062782387,52.87529633,Wicklow,Brittas Bay,Ireland,Beach
Goats Island ,,,-7.761013,51.9456704,Waterford,,Ireland,Beach
Ballyvaughan Pier,,,-9.153682,53.119533,Clare,Ballyvaughan,Ireland,Discovery Point
The Village At Wheelock’s,https://thevillageatwheelocks.ie,353539000000,-6.517368,52.508417,Wexford,Enniscorthy,Ireland,"Covid Safety Charter,Visitor Farm,Cafe,Food and Drink,Local Produce,Restaurant"
Castlefarm Shop,http://www.castlefarmshop.ie,353877000000,-6.8612811,53.0531178,Kildare,Narraghmore,Ireland,"Cooking,Cookery,Learning,Gardening,Nature and Wildlife,Shopping,Visitor Farm,Tour"
Blessington Street Basin (Dublin's Secret Garden),http://www.dublincity.ie/main-menu-services-recreation-culture-dublin-city-parks-visit-park/blessington-street-basin,+353(0)16612369,-6.269691598,53.35722262,Dublin,Dublin City,Republic of Ireland,"Bird Watching,Nature and Wildlife,Walking,Gardens,Garden"
Royal Irish Academy,http://www.ria.ie,+353(0)16762570,-6.258085,53.340716,Dublin,Dublin City Centre,Republic of Ireland,"Learning,Historic Houses and Castle,Museums and Attraction"
Fahan Beehive Huts,http://www.ancientireland.org/fahan,353879000000,-10.421536,52.1016785,Kerry,Fahan,Ireland,"Church Abbey,Monastery,Churches,Abbeys and Monastery"
St John’s Church Knockainey ,http://stjohnschurchknockainey.wordpress.com,353863000000,-8.4677333,52.474185,Limerick,,Ireland,"Photography,Learning,Historic Houses and Castle,Church Abbey,Monastery,Churches,Abbeys and Monastery"
Kildemock Jumping Church,http://www.louthholidays.com,353429000000,-6.518018,53.831371,Louth,Ardee,Republic of Ireland,"Church Abbey,Monastery,Churches,Abbeys and Monastery,Ruins,Historic Houses and Castle"
Kayaking.ie,http://www.kayaking.ie,353862000000,-6.093727731,53.27486714,Dublin,Dalkey,Ireland,"Kayaking,Activity Operator,River,Discovery Point,Boat,Tour"
Harristown House,https://www.harristownhouse.ie,35345483614,-6.6914209,53.1317192,Kildare,,Ireland,"Historic Houses and Castle,Tour"
Merry Ploughboy Pub Traditional Nights,http://www.mpbpub.com,35314931495,-6.2968957,53.2641499,Dublin,Rathfarnham,Ireland,"Covid Safety Charter,Food and Drink,Restaurant,Activity Operator,Historic Houses and Castle,Traditionally Irish,Venue,Music,Local Produce,Pubs and Bar,Food Shops,Shopping"
Valentia Observatory,http://www.met.ie/about/valentiaobservatory/default.asp,353669000000,-10.2400125,51.9383772,Kerry,Cahersiveen,Ireland,"Photography,Learning,Historic Houses and Castle,Museums and Attraction"
Cloncallow Garden,http://cloncallow.com,353868000000,-6.076193479,53.06779275,Wicklow,Newcastle,Ireland,"Gardens,Garden,Cafe,Food and Drink"
Castle Roche,https://www.visitlouth.ie/explore-and-do/explore-louth/castles-and-conquests-louth/castle-roche.html,353429000000,-6.48843,54.046471,Louth,Dundalk,Republic of Ireland,"Historic Houses and Castle,Castle"
JJ Corry Irish Whiskey Experience,https://www.chapelgatewhiskey.com,353864000000,-9.4353561,52.6770232,Clare,,Ireland,"Museums and Attraction,Tour"
Cé an Bhuna Bhig (Bunbeg Harbour),,,-8.3093977,55.057756,Donegal,Bunbeg,Ireland,Embarkation Point
Dublin Discovered Boat Tours,http://www.instagram.com/dublindiscovered,+353(0)14730000,-6.261545,53.34718,Dublin,,Republic of Ireland,"Covid Safety Charter,Activity Operator,River,Discovery Point,Boat,Tour"
Merrion Square,,+353(0)16612369,-6.25002,53.3388,Dublin,,Republic of Ireland,"Forest Park,Park and Forest Walk,Walking,National Park,National and Forest Park,Public Park,Nature and Wildlife"
Waterford County Museum,http://www.waterfordmuseum.ie,3535845960,-7.6194011,52.0886326,Waterford,Dungarvan,Ireland,"Learning,Photography,Historic Houses and Castle,Museums and Attraction"
The Norman Way - Heritage and Cycling trail,http://thenormanway.com,,-6.466516269,52.3366895,Wexford,,Ireland,"Cycling,Castle,Historic Houses and Castle,Natural Landscape,Ruins,Tour"
Ballinafad Castle,http://www.megalithicireland.com/Ballinafad%20Castle.html,,-8.335818,54.0259909,Sligo,Ballinafad,Ireland,"Castle,Historic Houses and Castle"
Garden Tours of Ireland,https://www.gardentoursofireland.com,35350454688,-7.9378116,52.6518532,Tipperary,,Ireland,"Gardening,Nature and Wildlife,Activity Operator,Gardens,Garden,Tour"
Pure Skill,https://www.pureskill.ie,35391515510,-9.1005695,53.271107,Galway,,Ireland,"Gaa,Activity Operator"
An Chonair (Conor Pass),,,-10.207747,52.181771,Kerry,Dingle Peninsula,Ireland,Discovery Point
Foynes Island - Viewpoint,,,-9.11306,52.613836,Limerick,Foynes,Ireland,Discovery Point
Clare Abbey,http://monastic.ie/history/clare-augustinian-abbey,353657000000,-8.9689595,52.8290238,Clare,Ennis,Ireland,"Church Abbey,Monastery,Churches,Abbeys and Monastery"
Go Gaelic,http://www.gogaelic.ie,353879000000,-8.966588827,52.81404477,Clare,Clarecastle,Ireland,"Gaa,Learning,Activity Operator,Venue,Sports Venues"
The Donkey Sanctuary,https://www.thedonkeysanctuary.ie/,3532248398,-8.794220999,52.2649923,Cork,Liscarroll,Republic of Ireland,"Visitor Farm,Cafe,Food and Drink,Food Shops,Shopping"
Warblebank Garden,http://warblebankgarden.com,353894000000,-6.1042318,53.087328,Wicklow,,Ireland,"Gardening,Nature and Wildlife,Gardens,Garden"
Temple Bar Gallery and Studios,http://www.templebargallery.com,+353(0)16710073,-6.263577,53.345631,Dublin,,Republic of Ireland,"Craft,Shopping,Learning,Art Gallery"
The Yeats Encounter,https://facebook.com/The-Yeats-Encounter-618433715302579,353871000000,-8.477227718,54.27385633,Sligo,Sligo Town,Republic of Ireland,"Activity Operator,Literary Ireland"
Donaghmore Round Tower,http://www.navanhistory.ie/index.php?page=donaghmore,,-6.6624651,53.670453,Meath,,Ireland,"Church Abbey,Monastery,Churches,Abbeys and Monastery,Ruins,Historic Houses and Castle"
Avoca Powerscourt,https://www.avoca.com/en/stores-and-cafes/powersourt,35312046066,-6.1866327,53.184251,Wicklow,Enniskerry,Republic of Ireland,"Covid Safety Charter,Restaurant,Food and Drink,Shopping,Shopping Centres and Department Store,Historic Houses and Castle,Cafe,Vegetarian,Food Shops"
Killagholehane Cemetery and Church,https://www.limerick.ie/discover/eat-see-do/history-heritage/churches-settlements/killagholehane-cemetery-and-church-ruin,35361396255,-8.979017,52.331277,Limerick,Broadford,Republic of Ireland,"Church Abbey,Monastery,Churches,Abbeys and Monastery"
Cashel Heritage Centre,https://www.cashel.ie/cashel-heritage-centre/,3536261333,-7.8876149,52.5169758,Tipperary,Cashel,Ireland,Museums and Attraction
Kilkenny City Library,https://www.kilkennylibrary.ie,+353(0)567794174,-7.250184,52.653473,Kilkenny,Kilkenny City,Republic of Ireland,"Learning,Literary Ireland"
Doran's Point,,,-9.8685068,54.005341,Mayo,Ballycroy,Ireland,Embarkation Point
Royal Hibernian Academy,http://www.rhagallery.ie,+353(0)16612558,-6.254706872,53.3370712,Dublin,,Republic of Ireland,"Craft,Shopping,Art Gallery,Cafe,Food and Drink,Food Shops"
"The Gerard Byrne Studio, Art Gallery",http://gerardbyrneartist.com,+353(0)14982909,-6.251773105,53.32570019,Dublin,Ranelagh,Republic of Ireland,"Craft,Shopping,Art Gallery,Food Shops"
St. Patrick's Well Cross,,,-7.393276564,52.41607104,Tipperary,Ahenny,Ireland,"Church Abbey,Monastery,Churches,Abbeys and Monastery"
West Cork Heritage Centre,https://westcorkheritagecentre.com,353239000000,-8.7366366,51.7467306,Cork,Bandon,Ireland,Museums and Attraction
Black Linn Loop,https://visithowth.ie/the-black-linn-loop-walk/,35318323347,-6.065795119,53.38799393,Dublin,Howth,Republic of Ireland,"Walking,Marina,Venue,Natural Landscape"
West Gate Heritage Tower,http://wexfordhub.com/history/westgate-tower,353539000000,-6.466286,52.341426,Wexford,,Republic of Ireland,Museums and Attraction
Colla Pier,,,-9.561419,51.506532,,,,Embarkation Point
Dunbrody Abbey and Visitor Centre,http://www.dunbrodyabbey.com,353863000000,-6.955400439,52.2821012,Wexford,Campile,Republic of Ireland,"Craft,Shopping,Walking,Historic Houses and Castle,Castle,Church Abbey,Monastery,Churches,Abbeys and Monastery,Museums and Attraction,Cafe,Food and Drink,Food Shops,Tour"
Adare Heritage Centre,http://www.adareheritagecentre.ie,35361396666,-8.7898313,52.5647887,Limerick,Adare,Ireland,"Covid Safety Charter,Restaurant,Craft,Shopping,Shopping Centres and Department Store,Tracing Your Ancestors,Museums and Attraction,Cafe,Food and Drink,Food Shops,Tour"
O'Connell Memorial Church,http://www.dioceseofkerry.ie/parish/cahersiveen/,353647000000,-10.2254183,51.9469561,Kerry,Cahersiveen,Ireland,"Historic Houses and Castle,Church Abbey,Monastery,Churches,Abbeys and Monastery"
Glascarrig Beach,,,-6.204060286,52.58147885,Wexford,Cahore,Republic of Ireland,Beach
Tramline Loop,https://visithowth.ie/the-tramline-loop/,35318323347,-6.066380923,53.38800343,Dublin,Howth,Republic of Ireland,"Walking,Natural Landscape,Public Park,Nature and Wildlife"
Tolka Valley Park,,+353(0)18905629,-6.384194116,53.39496052,Dublin,Blanchardstown,Republic of Ireland,"Forest Park,Park and Forest Walk,Walking,National Park,National and Forest Park,Public Park,Nature and Wildlife"
Fairy Fort Farm,http://www.fairyfortfarm.com,353863000000,-7.9515445,52.7612627,Tipperary,,Ireland,"Agriculture,Nature and Wildlife,Activity Operator,Visitor Farm,Tour"
Doheny & Nesbitt,http://dohenyandnesbitts.ie/,35316762945,-6.2528309,53.33805,Dublin,Dublin,Ireland,"Food and Drink,Restaurant,Historic Houses and Castle,Pubs and Bar"
Srón Bhroin (Brandon Point),,,-10.160739,52.287794,Kerry,Brandon,Ireland,Discovery Point
Inishmurray Island,https://inishmurray.com/,,-8.661407319,54.43244977,Sligo,Inishmurray,Republic of Ireland,"Island,Offshore Island"
Old Coastguard Station,http://www.jamescahill.com/coastguardstation.html,353949000000,-9.6208477,53.8213183,Mayo,,Ireland,Historic Houses and Castle
St Doulagh's Church,http://fingaldublin.ie/interior-pages/activities-attractions-amp-conference/castles-churches-and-towers/st-doulaghs-church/,+353(0)18400077,-6.179085881,53.41542455,Dublin,,Ireland,"Church Abbey,Monastery,Churches,Abbeys and Monastery,Tour"
Inis Fraoigh (Inishfree Island),,,-8.44568,54.954042,Donegal,,Ireland,Discovery Point
Clonfert Cathedral,http://www.megalithicireland.com/Clonfert%20Cathedral.html,,-8.0583679,53.2406887,Galway,,Ireland,"Church Abbey,Monastery,Churches,Abbeys and Monastery"
Macroom Castle,https://www.castles.nl/macroom-castle,3532620544,-8.961492,51.904995,Cork,Macroom,Republic of Ireland,"Castle,Historic Houses and Castle"
Old Irish Ways Museum,https://www.facebook.com/oldirishways,353862000000,-8.5852674,52.5045226,Limerick,,Ireland,"Agriculture,Nature and Wildlife,Museums and Attraction,Tour"
Corrin Nature Reserve,http://rathcormacgameandwildlifeclub.ie,+353(0)2536253,-8.28814632,52.11042047,Cork,Fermoy,Republic of Ireland,"Bird Watching,Nature and Wildlife,Walking,Natural Landscape"
Cé Bhaile an Sceilg (Ballinskelligs Pier),,,-10.274349,51.810877,Kerry,Ballinskelligs,Ireland,Embarkation Point
Mountcharles Pier,,,-8.2061166,54.630369,Donegal,Mountcharles,Ireland,Discovery Point
Inch Beach ,https://www.blueflag.global/show-site?siteId=6652,353669000000,-9.9705715,52.1247783,Kerry,,Ireland,"Bird Watching,Nature and Wildlife,Fishing,Angling,Kayaking,Activity Operator,Kitesurfing,Windsurfing,Surfing,Swimming,Swimming Pools and Water Park,Venue,Walking,Beach,Discovery Point,Natural Landscape,Cafe,Food and Drink"
Bearna Breac Loop,http://facebook.com/windgap.tidytowns,+353(0)874186077,-7.398690855,52.46418975,Kilkenny,Windgap,Ireland,"Walking,Natural Landscape"
Knockcree Gardens,http://www.dublingardens.com,+353(0)12955884,-6.18208,53.2478,Dublin,Carrickmines,Republic of Ireland,"Gardening,Nature and Wildlife,Gardens,Garden"
Marlay Demesne,http://www.dlrcoco.ie/en/parks-outdoors/parks/marlay-park,+353(0)12054700,-6.27569,53.2796,Dublin,Rathfarnham,Republic of Ireland,"Cycling,Golf,Walking,Gardens,Garden,Historic Houses and Castle,Public Park,Nature and Wildlife,Venue,Music,Sports Venues,Cafe,Food and Drink,Local Produce,Restaurant,Food Shops,Shopping,Tour"
Lahinch Beach,https://www.blueflag.global/show-site?siteId=6621,,-9.34783,52.9336105,Clare,Lahinch,Ireland,"Fishing,Angling,Kitesurfing,Windsurfing,Activity Operator,Surfing,Swimming,Swimming Pools and Water Park,Venue,Beach,Natural Landscape"
Kilmurry Nursery  and Garden,http://www.kilmurrynursery.com/,353539000000,-6.241779,52.690274,Wexford,Gorey,Ireland,"Gardening,Nature and Wildlife,Walking,Gardens,Garden,Food Shops,Shopping"
Charles Fort,https://heritageireland.ie/places-to-visit/charles-fort-national-monument/,353215000000,-8.4989435,51.6970946,Cork,Kinsale,Ireland,"Covid Safety Charter,Castle,Historic Houses and Castle"
Tourin House & Gardens,http://tourin.ie/,3535854405,-7.8641684,52.1202193,Waterford,Cappoquin,Ireland,"Historic Houses and Castle,Gardens,Garden"
"The Glen, Strandhill",,,-8.580854643,54.26105082,Sligo,Strandhill,Ireland,Natural Landscape
Phil Lynott Statue,,,-6.2606956,53.341281,Dublin,,Ireland,Public Sculpture
Hilton Park Garden,https://www.hiltonpark.ie,3534756007,-7.2529443,54.134149,Monaghan,Scotshouse,Ireland,"Photography,Learning,Gardens,Garden,Food and Drink,Restaurant"
Carrowteige - Black Ditch Loop,https://www.irishtrails.ie/Trail/Carrowteige---Black-Ditch-loop/140/ ,,-9.987016054,54.22138267,Mayo,,Republic of Ireland,"Walking,Public Park,Nature and Wildlife,Public Sculpture"
Angela's Ashes Walking Tour,https://www.limerick.ie/discover/eat-see-do/tours/angelas-ashes-walking-tours,+353(0)833000111,-8.62566,52.6653,Limerick,,Republic of Ireland,"Walking,Activity Operator,Literary Ireland,Tour"
Famine Memorial,,,-6.250194,53.347933,Dublin,,Republic of Ireland,Public Sculpture
Macroom Buffalo Farm with O'Tuama Tours,https://www.otuamatours.ie,353869000000,-9.247536,51.85041,Cork,Ballingeary,Republic of Ireland,"Food and Drink,Restaurant,Activity Operator,Visitor Farm,Local Produce,Tour"
The Back Lane Pop Up Gallery,http://thebacklanegallery.blogspot.com/,353873000000,-9.5062927,52.0589956,Kerry,Killarney,Ireland,"Craft,Shopping,Art Gallery"
Ferns Cathedral,https://www.archaeology.ie/monument-of-the-month/archive/ferns-co-wexford,,-6.4926135,52.5899833,Wexford,,Ireland,"Church Abbey,Monastery,Churches,Abbeys and Monastery"
The Spire,,,-6.260294,53.350921,Dublin,Dublin City,Ireland,Public Sculpture
Carey's Castle,https://www.coillte.ie/site/careys-castle,,-7.707235661,52.35841318,Tipperary,Clonmel,Republic of Ireland,"Bird Watching,Nature and Wildlife,Photography,Learning,Walking,Historic Houses and Castle,Castle,Forest Park,Park and Forest Walk,Natural Landscape,Ruins"
Courtown  Beach,,,-6.2260467,52.6479582,Wexford,Courtown,Ireland,Beach
Castletownbere Harbour,,,-9.9082625,51.652249,Cork,,Ireland,Embarkation Point
Enniscrone Beach,http://www.blueflagireland.org/,,-9.098762029,54.21228126,Sligo,Enniscrone,Ireland,Beach
